{"type":"FeatureCollection","features":[{"type":"Feature","id":"d_grenzstreifen.299","geometry":{"type":"Polygon","coordinates":[[[13.30707624,52.65967597],[13.30799473,52.66001755],[13.30752414,52.66042288],[13.30673349,52.66126184],[13.3058023,52.66140773],[13.30471461,52.6615108],[13.30348707,52.66165954],[13.30142315,52.66174928],[13.29968479,52.6617763],[13.29751046,52.6618339],[13.29605042,52.66162371],[13.2949315,52.66154513],[13.29386692,52.6616117],[13.29246668,52.66173957],[13.29125139,52.66189194],[13.29032614,52.66200793],[13.2886607,52.66204033],[13.28832202,52.66164781],[13.28776166,52.66077266],[13.28607046,52.66059497],[13.28573571,52.66055806],[13.28265793,52.66099253],[13.28238278,52.66089587],[13.28192046,52.65703603],[13.28176319,52.65698764],[13.28136439,52.65696111],[13.281249,52.65472138],[13.28110894,52.65249215],[13.28116994,52.65225267],[13.28178536,52.65264687],[13.28227591,52.6569412],[13.28267914,52.66080086],[13.28625071,52.66022402],[13.28715899,52.65999895],[13.28773041,52.65999094],[13.28901937,52.65999802],[13.29386757,52.65938065],[13.29662204,52.65942467],[13.29929649,52.65937959],[13.30038794,52.65933405],[13.3021714,52.65927422],[13.30707624,52.65967597]],[[13.2922915,52.66145149],[13.29591228,52.66112735],[13.29639071,52.66117182],[13.29786762,52.6615132],[13.29959965,52.66150737],[13.30129728,52.66144845],[13.30287921,52.66134679],[13.30579423,52.66100677],[13.30628841,52.66064029],[13.30674629,52.66006682],[13.29966152,52.66023183],[13.29525507,52.66047722],[13.29064251,52.66060802],[13.28851414,52.66060197],[13.28874425,52.66142944],[13.28915635,52.66165829],[13.28964839,52.66174357],[13.2922915,52.66145149]]]},"geometry_name":"geom","properties":{"gisid":299,"objekt":"Grenzstreifen"},"bbox":[13.28110894,52.65225267,13.30799473,52.66204033]},{"type":"Feature","id":"d_grenzstreifen.306","geometry":{"type":"Polygon","coordinates":[[[13.28178536,52.65264687],[13.28116994,52.65225267],[13.28343433,52.64993456],[13.28346196,52.64979483],[13.28350228,52.64947311],[13.28340797,52.64826886],[13.28316941,52.64602737],[13.28295529,52.64404849],[13.28289135,52.64375264],[13.2827333,52.64359521],[13.28262327,52.64348559],[13.28237347,52.64334919],[13.2812263,52.642778],[13.27885646,52.64163924],[13.27608808,52.64103004],[13.26932849,52.64014389],[13.26175498,52.64122009],[13.2615675,52.64117758],[13.26147199,52.64112851],[13.26130764,52.64104405],[13.26120828,52.64083374],[13.2610064,52.6391512],[13.26298192,52.63535377],[13.26329892,52.63305569],[13.26454589,52.63299935],[13.26475118,52.63390615],[13.26477497,52.63424604],[13.26474464,52.63446089],[13.2646924,52.63520686],[13.26447787,52.63558198],[13.2641321,52.6362716],[13.26388145,52.63677155],[13.26371356,52.63705104],[13.26334878,52.63752425],[13.26300189,52.63797428],[13.26237092,52.63868866],[13.26207106,52.63956155],[13.2620075,52.64080735],[13.26924894,52.63974257],[13.27179685,52.63991476],[13.27412527,52.64030406],[13.27642946,52.6402845],[13.2773349,52.64045737],[13.28102234,52.64097818],[13.28164396,52.64108115],[13.28360467,52.64117931],[13.28386158,52.64298473],[13.28412291,52.64502356],[13.28451519,52.64776878],[13.28413273,52.64849498],[13.28463617,52.64993804],[13.28491227,52.65243128],[13.28471346,52.65249354],[13.28234437,52.65261613],[13.28178536,52.65264687]]]},"geometry_name":"geom","properties":{"gisid":306,"objekt":"Grenzstreifen"},"bbox":[13.2610064,52.63299935,13.28491227,52.65264687]},{"type":"Feature","id":"d_grenzstreifen.316","geometry":{"type":"Polygon","coordinates":[[[13.26454589,52.63299935],[13.26329892,52.63305569],[13.26350832,52.63153755],[13.26342971,52.63107145],[13.2631452,52.62892038],[13.26298138,52.62878606],[13.25662819,52.62835072],[13.25520341,52.62829608],[13.24913793,52.62821922],[13.24751165,52.62842092],[13.24304831,52.62902724],[13.24138274,52.63047011],[13.24138861,52.63195289],[13.24142336,52.63229783],[13.24008199,52.63230495],[13.24006472,52.63212099],[13.23983995,52.63190186],[13.23984188,52.63168348],[13.23999514,52.6314426],[13.23991862,52.62940787],[13.23946983,52.62888916],[13.2376018,52.62865315],[13.23573378,52.62841712],[13.23594768,52.62796653],[13.23205979,52.62761913],[13.23057976,52.62759748],[13.22952624,52.62761486],[13.22858084,52.62771514],[13.2281913,52.62817485],[13.22660588,52.62859708],[13.22606561,52.62821416],[13.22837453,52.62755352],[13.22949748,52.62745991],[13.22996273,52.62741197],[13.23023331,52.62741653],[13.23070517,52.62741553],[13.23120766,52.62741445],[13.23149144,52.62743042],[13.23196155,52.62750673],[13.23222733,52.62752379],[13.23259933,52.62755739],[13.23592153,52.62781591],[13.23627465,52.62783381],[13.23753525,52.62780451],[13.23834141,52.62778672],[13.2387932,52.62782056],[13.23908333,52.62781422],[13.23942712,52.6278776],[13.24004363,52.62798828],[13.24043044,52.62807225],[13.24064903,52.6281197],[13.24098703,52.6282005],[13.24118082,52.62823355],[13.24158677,52.62830278],[13.24168452,52.62831765],[13.24191496,52.62835271],[13.24208219,52.62835326],[13.24290928,52.62835594],[13.24372366,52.62819262],[13.2448297,52.62784018],[13.24608306,52.62743966],[13.24685564,52.62743579],[13.24929306,52.62752723],[13.25052586,52.62753115],[13.25063582,52.6275315],[13.25074574,52.62753185],[13.25137418,52.62750037],[13.25233589,52.62753688],[13.25433301,52.62769123],[13.25605984,52.62778029],[13.25742954,52.62785148],[13.25964642,52.6280256],[13.26010966,52.62802703],[13.26235675,52.62758792],[13.26304976,52.62739587],[13.26403515,52.62722089],[13.26401976,52.62908175],[13.26406626,52.62989098],[13.264226,52.63069167],[13.26405676,52.63103986],[13.26391725,52.63145764],[13.26407707,52.63180046],[13.26454589,52.63299935]]]},"geometry_name":"geom","properties":{"gisid":316,"objekt":"Grenzstreifen"},"bbox":[13.22606561,52.62722089,13.26454589,52.63305569]},{"type":"Feature","id":"d_grenzstreifen.317","geometry":{"type":"Polygon","coordinates":[[[13.22606561,52.62821416],[13.22660588,52.62859708],[13.22522357,52.62896519],[13.22462074,52.62919485],[13.22420615,52.62944431],[13.22376698,52.62937593],[13.22374025,52.62929221],[13.22262114,52.62874094],[13.21753996,52.628712],[13.21753861,52.62855517],[13.21768531,52.62858385],[13.22466488,52.62861491],[13.22606561,52.62821416]]]},"geometry_name":"geom","properties":{"gisid":317,"objekt":"Grenzstreifen"},"bbox":[13.21753861,52.62821416,13.22660588,52.62944431]},{"type":"Feature","id":"d_grenzstreifen.318","geometry":{"type":"Polygon","coordinates":[[[13.20476698,52.61644225],[13.20481306,52.61633038],[13.20571417,52.61662486],[13.20680124,52.61693617],[13.20799328,52.61739348],[13.2088136,52.61780093],[13.2100564,52.6185173],[13.21348205,52.62178185],[13.21390397,52.6221555],[13.21392173,52.62233501],[13.21402347,52.62249243],[13.21530839,52.62529788],[13.21559512,52.62591379],[13.21616741,52.62727505],[13.21639842,52.62816585],[13.21647827,52.62912212],[13.21628862,52.62920193],[13.21564411,52.62944107],[13.2156265,52.62913575],[13.21622688,52.62890138],[13.21617031,52.62808213],[13.21592106,52.62724918],[13.21444826,52.62402312],[13.21315357,52.62198849],[13.21287736,52.6217529],[13.2123028,52.62136196],[13.21012144,52.61949463],[13.20800427,52.61765358],[13.20476698,52.61644225]]]},"geometry_name":"geom","properties":{"gisid":318,"objekt":"Grenzstreifen"},"bbox":[13.20476698,52.61633038,13.21647827,52.62944107]},{"type":"Feature","id":"d_grenzstreifen.324","geometry":{"type":"Polygon","coordinates":[[[13.20986323,52.61616426],[13.20993618,52.6164524],[13.21000934,52.61684536],[13.20994831,52.61705655],[13.21021538,52.617952],[13.20922856,52.61740064],[13.20835061,52.61699501],[13.20842846,52.61653684],[13.20812054,52.61607731],[13.20715376,52.61535828],[13.20674919,52.61540157],[13.20485227,52.61398597],[13.2046682,52.61343128],[13.20459254,52.61274229],[13.20470684,52.61191688],[13.20443293,52.61174818],[13.20428673,52.61166939],[13.20404967,52.61148964],[13.20379903,52.611153],[13.20366506,52.61073239],[13.2038586,52.61034845],[13.20376924,52.61009095],[13.2035888,52.60975486],[13.20342511,52.60958656],[13.20302034,52.60937626],[13.20262782,52.6091875],[13.20238611,52.60906018],[13.20133409,52.60850603],[13.19995465,52.6075838],[13.19973807,52.60698163],[13.1996269,52.60667229],[13.19953886,52.60642728],[13.19952658,52.60627402],[13.19944719,52.60603858],[13.1994754,52.60587131],[13.19951485,52.60559191],[13.19951757,52.60531238],[13.19963049,52.60503325],[13.19896251,52.60384561],[13.19907629,52.60347703],[13.19939318,52.60299737],[13.20000606,52.60229514],[13.20047895,52.6008768],[13.20123609,52.60044344],[13.20177681,52.60041275],[13.20125315,52.60057768],[13.20073517,52.60096717],[13.20059836,52.60134707],[13.20059334,52.60186487],[13.20059083,52.60212377],[13.20053485,52.60241484],[13.20034676,52.60262453],[13.20027254,52.60271757],[13.19953126,52.60317084],[13.19932833,52.60349468],[13.19927234,52.60378575],[13.19950728,52.60422351],[13.20011245,52.60485678],[13.19983958,52.60558399],[13.19997809,52.60594475],[13.20000911,52.6061386],[13.20056432,52.60759315],[13.20129021,52.60804313],[13.20151057,52.60819452],[13.20191784,52.60843925],[13.20217569,52.60863457],[13.20302362,52.6089127],[13.20357668,52.60944868],[13.20415773,52.60983912],[13.20428923,52.60998523],[13.20431457,52.61011477],[13.20428674,52.61024413],[13.20425356,52.61036255],[13.20422413,52.61053983],[13.20412262,52.61063675],[13.20406848,52.61082589],[13.20401313,52.61105224],[13.20409132,52.61121434],[13.20424957,52.61134436],[13.20448788,52.6114423],[13.20470007,52.6114916],[13.20479385,52.61149202],[13.20496899,52.61156347],[13.20517731,52.61162276],[13.20501051,52.61281248],[13.20491243,52.61346065],[13.2049829,52.61377398],[13.20514618,52.61398701],[13.20790269,52.61574261],[13.20938761,52.6161524],[13.20986323,52.61616426]]]},"geometry_name":"geom","properties":{"gisid":324,"objekt":"Grenzstreifen"},"bbox":[13.19896251,52.60041275,13.21021538,52.617952]},{"type":"Feature","id":"d_grenzstreifen.341","geometry":{"type":"Polygon","coordinates":[[[13.16551493,52.59944334],[13.16511762,52.59936721],[13.16394938,52.59919123],[13.15600807,52.59799466],[13.15427019,52.59712413],[13.14804588,52.59250027],[13.14720617,52.59199735],[13.13959143,52.58979247],[13.13495573,52.5881697],[13.12791102,52.5878354],[13.12582908,52.58305954],[13.12964502,52.58070822],[13.13086303,52.57937411],[13.13178668,52.57962096],[13.12991768,52.58154774],[13.12761214,52.58305148],[13.12779214,52.58591645],[13.12862394,52.58753815],[13.13056778,52.58715794],[13.13266753,52.58708581],[13.13571666,52.58764868],[13.13776442,52.5888899],[13.14050504,52.58951317],[13.14463988,52.59043627],[13.14969237,52.59251183],[13.15353511,52.59592545],[13.15691534,52.5977564],[13.16477195,52.59883401],[13.16551493,52.59944334]]]},"geometry_name":"geom","properties":{"gisid":341,"objekt":"Grenzstreifen"},"bbox":[13.12582908,52.57937411,13.16551493,52.59944334]},{"type":"Feature","id":"d_grenzstreifen.346","geometry":{"type":"Polygon","coordinates":[[[13.13086303,52.57937411],[13.13274358,52.57731413],[13.13808499,52.5714436],[13.1486491,52.5678011],[13.14902753,52.56695622],[13.14908447,52.56657075],[13.14990676,52.56694905],[13.15025699,52.56788647],[13.15110526,52.56918806],[13.15118508,52.5700152],[13.15229615,52.57047556],[13.15241455,52.57125649],[13.15282056,52.57712308],[13.15277925,52.57742428],[13.15264466,52.57814237],[13.1521082,52.57953638],[13.15060563,52.58203114],[13.14964442,52.58289649],[13.14955631,52.58327557],[13.14535788,52.58218045],[13.14425618,52.58161368],[13.14380466,52.58152796],[13.14213563,52.58124553],[13.14011572,52.58067404],[13.13925392,52.58033497],[13.13901827,52.58029805],[13.13732577,52.58036296],[13.13538091,52.5799384],[13.13285876,52.57956342],[13.13242922,52.57954685],[13.13178668,52.57962096],[13.13086303,52.57937411]],[[13.15202101,52.57062174],[13.1508723,52.57006792],[13.15083776,52.56935242],[13.15003347,52.56809344],[13.13929728,52.57195675],[13.13860156,52.57248296],[13.13183946,52.57943006],[13.13292986,52.57942201],[13.13538465,52.57979172],[13.13746427,52.58029164],[13.13892071,52.58022575],[13.13933327,52.58027538],[13.14025395,52.58062667],[13.1422151,52.58117395],[13.14429671,52.581506],[13.14543554,52.58211683],[13.14945324,52.58316429],[13.14951245,52.58287038],[13.15047302,52.58199693],[13.15197051,52.57953583],[13.15256397,52.57740521],[13.15260796,52.576974],[13.15202101,52.57062174]]]},"geometry_name":"geom","properties":{"gisid":346,"objekt":"Grenzstreifen"},"bbox":[13.13086303,52.56657075,13.15282056,52.58327557]},{"type":"Feature","id":"d_grenzstreifen.349","geometry":{"type":"Polygon","coordinates":[[[13.14908447,52.56657075],[13.14756966,52.56520395],[13.14666762,52.56412171],[13.1466884,52.56217903],[13.14611259,52.56178027],[13.14508662,52.56074756],[13.14622392,52.55829053],[13.14662695,52.55492539],[13.1455101,52.55351468],[13.14224302,52.55350342],[13.14058661,52.55253326],[13.14114315,52.55114987],[13.14286369,52.5482536],[13.14240531,52.54466217],[13.14222576,52.54327576],[13.14198288,52.54174393],[13.14198101,52.53994914],[13.14195835,52.53946811],[13.14142265,52.53787691],[13.14192295,52.53784209],[13.14220528,52.53856879],[13.14271325,52.53973078],[13.14286755,52.54068186],[13.14302067,52.54174113],[13.14311577,52.54231334],[13.14373121,52.54628767],[13.14376694,52.54649645],[13.14386206,52.54706866],[13.14381997,52.54743939],[13.14364951,52.54795643],[13.1435181,52.54814933],[13.14348108,52.54828801],[13.1414412,52.55164876],[13.14136003,52.55211206],[13.14145247,52.55245067],[13.14308412,52.55211139],[13.14572345,52.55304169],[13.14713377,52.55507968],[13.14659716,52.55859754],[13.14613215,52.55932421],[13.1455391,52.56079406],[13.1468754,52.56150266],[13.14732321,52.56248939],[13.14738939,52.56339759],[13.14732897,52.56426603],[13.1477112,52.56488141],[13.14990676,52.56694905],[13.14908447,52.56657075]]]},"geometry_name":"geom","properties":{"gisid":349,"objekt":"Grenzstreifen"},"bbox":[13.14058661,52.53784209,13.14990676,52.56694905]},{"type":"Feature","id":"d_grenzstreifen.357","geometry":{"type":"Polygon","coordinates":[[[13.14147442,52.5237582],[13.14140379,52.52073552],[13.14266091,52.5177886],[13.14354145,52.51743567],[13.16343119,52.51009943],[13.16466275,52.50967641],[13.16581149,52.50915103],[13.1666003,52.50879264],[13.16468631,52.50743038],[13.15889479,52.5039493],[13.15811194,52.50339358],[13.15558979,52.5015831],[13.15277729,52.49962879],[13.15196558,52.49905509],[13.14857253,52.49679529],[13.14599468,52.49480611],[13.14338863,52.49274546],[13.14286706,52.49236897],[13.14074912,52.4907063],[13.13835826,52.48883797],[13.13706762,52.4877759],[13.13561153,52.48710728],[13.13329135,52.48577356],[13.13455921,52.48470933],[13.13538762,52.48535604],[13.13602618,52.48584262],[13.13674012,52.48639325],[13.13695083,52.48655266],[13.13770291,52.48716228],[13.13847227,52.48774077],[13.13914901,52.48832164],[13.14054424,52.48932746],[13.14128151,52.48991419],[13.14260407,52.49095731],[13.14495723,52.49276847],[13.1464558,52.49392755],[13.14754459,52.49477509],[13.14878558,52.49574574],[13.14989862,52.49654292],[13.15136467,52.4974568],[13.15420587,52.49959299],[13.15649598,52.50123894],[13.15716412,52.50170279],[13.15833566,52.50257938],[13.16185566,52.50472629],[13.16482247,52.50672682],[13.16740438,52.50852342],[13.16788835,52.50887899],[13.16868754,52.5092568],[13.16509864,52.51041932],[13.15856295,52.51286351],[13.15797224,52.51287559],[13.15334339,52.51460942],[13.1513395,52.51558842],[13.14893424,52.51648777],[13.14743822,52.51704181],[13.1454341,52.51743595],[13.14514515,52.51759856],[13.14296968,52.51968113],[13.14301662,52.523896],[13.14147442,52.5237582]]]},"geometry_name":"geom","properties":{"gisid":357,"objekt":"Grenzstreifen"},"bbox":[13.13329135,52.48470933,13.16868754,52.523896]},{"type":"Feature","id":"d_grenzstreifen.364","geometry":{"type":"Polygon","coordinates":[[[13.10672177,52.45024749],[13.10672969,52.45019404],[13.10751727,52.45034857],[13.1076284,52.45000028],[13.10833334,52.45035639],[13.11251986,52.44719747],[13.11422803,52.44593167],[13.11461694,52.44559726],[13.11607212,52.44488146],[13.11729822,52.44422064],[13.1182583,52.44363707],[13.11898737,52.44372944],[13.11897914,52.44394822],[13.11667774,52.44510311],[13.11522944,52.44567836],[13.11339844,52.44719315],[13.11185,52.44849797],[13.10909978,52.45069108],[13.11022714,52.45212285],[13.11097292,52.45290438],[13.11159892,52.45384393],[13.11177021,52.45432749],[13.11220604,52.45640479],[13.11184931,52.45664825],[13.11116312,52.45681822],[13.11127425,52.45755423],[13.11139037,52.45888751],[13.11037016,52.45905591],[13.11007483,52.45909065],[13.1098271,52.45908956],[13.10963869,52.45905992],[13.1093447,52.45897936],[13.10898188,52.45873276],[13.10643257,52.457828],[13.10597149,52.45791244],[13.10569847,52.45805537],[13.10559086,52.4581774],[13.10560164,52.45826392],[13.10557677,52.45837191],[13.10557515,52.45850882],[13.10563321,52.45857478],[13.10569088,52.45869829],[13.10573763,52.45879843],[13.10586278,52.45894372],[13.10771283,52.46064661],[13.10784104,52.46092691],[13.10788644,52.46111037],[13.10792609,52.46127063],[13.10794395,52.46152451],[13.10755558,52.46264672],[13.10736677,52.46394346],[13.10742599,52.46463507],[13.10776972,52.46514123],[13.10872502,52.46642454],[13.11021865,52.46897826],[13.11036032,52.46998055],[13.11051978,52.47047127],[13.1106945,52.4706666],[13.11110597,52.47079811],[13.11122346,52.47084186],[13.11273926,52.47139613],[13.11423182,52.47192145],[13.1152906,52.47228216],[13.11520546,52.4724229],[13.11503633,52.47276086],[13.11481765,52.47330038],[13.11495683,52.47350996],[13.1150848,52.47366905],[13.11729074,52.47476672],[13.11774864,52.47497046],[13.11785277,52.47719764],[13.1179928,52.47733516],[13.12005426,52.47767549],[13.12405125,52.4783346],[13.1262267,52.47872505],[13.12685293,52.47901894],[13.12843113,52.48000265],[13.13094841,52.48192022],[13.13285478,52.48337931],[13.1334283,52.48381407],[13.13379114,52.48408942],[13.13455921,52.48470933],[13.13329135,52.48577356],[13.13304056,52.48553177],[13.13110193,52.48303409],[13.12920338,52.481182],[13.12650282,52.47966194],[13.12455622,52.47921878],[13.1215956,52.47873555],[13.1207365,52.47860362],[13.11973948,52.47800168],[13.11662365,52.4776198],[13.11646156,52.47752857],[13.1164676,52.47706307],[13.11457246,52.47350346],[13.11453287,52.47330013],[13.11473089,52.47258792],[13.11422492,52.47216681],[13.11297419,52.47193201],[13.11223628,52.47169508],[13.11169712,52.47152197],[13.11146464,52.47138048],[13.11092291,52.4711789],[13.11075008,52.47111457],[13.11043768,52.47082641],[13.1098779,52.46915739],[13.10819794,52.46661064],[13.10778565,52.46565349],[13.10716112,52.46462907],[13.10705265,52.46396998],[13.1075609,52.46152002],[13.10754731,52.46122913],[13.10748218,52.46104259],[13.10743558,52.46090912],[13.10733921,52.46068789],[13.10555462,52.45893876],[13.10537935,52.45860671],[13.10533906,52.45836106],[13.10537675,52.45822318],[13.1054388,52.45814674],[13.10556607,52.4580306],[13.10576508,52.45784906],[13.10628107,52.45767972],[13.11006783,52.45898898],[13.11033104,52.45900352],[13.11101821,52.45880542],[13.1108195,52.45702938],[13.11077798,52.45682534],[13.1108751,52.45656292],[13.10983196,52.45476447],[13.10746324,52.45046466],[13.10672177,52.45024749]]]},"geometry_name":"geom","properties":{"gisid":364,"objekt":"Grenzstreifen"},"bbox":[13.10533906,52.44363707,13.13455921,52.48577356]},{"type":"Feature","id":"d_grenzstreifen.370","geometry":{"type":"Polygon","coordinates":[[[13.1182583,52.44363707],[13.11826687,52.44352481],[13.11826479,52.44345299],[13.11826007,52.44329021],[13.11819185,52.44303789],[13.11511218,52.44210924],[13.11485394,52.44192519],[13.11415849,52.44082111],[13.1138549,52.44012761],[13.11001411,52.43858567],[13.10911318,52.43817767],[13.10505243,52.43533352],[13.10598899,52.43547892],[13.10955196,52.43798748],[13.11097213,52.43858986],[13.1142094,52.43983031],[13.11572989,52.44191384],[13.11878959,52.44280519],[13.11892175,52.44328237],[13.11894202,52.44357071],[13.11898737,52.44372944],[13.1182583,52.44363707]]]},"geometry_name":"geom","properties":{"gisid":370,"objekt":"Grenzstreifen"},"bbox":[13.10505243,52.43533352,13.11898737,52.44372944]},{"type":"Feature","id":"d_grenzstreifen.382","geometry":{"type":"Polygon","coordinates":[[[13.10505243,52.43533352],[13.10522559,52.43526355],[13.1055618,52.43511613],[13.10607402,52.43419089],[13.10618206,52.43391387],[13.10624479,52.4334142],[13.10614918,52.43314248],[13.1060379,52.43293818],[13.1055968,52.4327053],[13.10371236,52.43332279],[13.10314417,52.43308359],[13.10290952,52.43294616],[13.10138878,52.43167575],[13.10068944,52.43087834],[13.10011285,52.42969636],[13.09995534,52.42941995],[13.09899349,52.4277075],[13.09885653,52.42695484],[13.09745978,52.42665042],[13.09713193,52.42643296],[13.09664103,52.42615309],[13.09634055,52.42589026],[13.09685838,52.42555201],[13.09774165,52.42593395],[13.09889036,52.42615828],[13.0989622,52.42630121],[13.09914013,52.42748667],[13.09916446,52.42764877],[13.09937185,52.42804949],[13.09972956,52.42834392],[13.10006664,52.42939189],[13.10054332,52.43047252],[13.10074209,52.43086654],[13.10151108,52.43173392],[13.1029532,52.43292067],[13.10361575,52.43321333],[13.10562433,52.4325483],[13.1059928,52.432645],[13.1061537,52.43275903],[13.10631703,52.43287477],[13.10641843,52.43311596],[13.10649708,52.43385122],[13.10648891,52.43454487],[13.10653804,52.43482112],[13.10598899,52.43547892],[13.10505243,52.43533352]]]},"geometry_name":"geom","properties":{"gisid":382,"objekt":"Grenzstreifen"},"bbox":[13.09634055,52.42555201,13.10653804,52.43547892]},{"type":"Feature","id":"d_grenzstreifen.393","geometry":{"type":"Polygon","coordinates":[[[13.08824592,52.42869973],[13.0866651,52.42635637],[13.08623159,52.42636726],[13.08595957,52.42634116],[13.0849412,52.42624344],[13.0842833,52.42606058],[13.08349603,52.42581458],[13.08295958,52.42564692],[13.08252795,52.42541285],[13.08198096,52.42510377],[13.0815022,52.42483325],[13.08182355,52.42465987],[13.08260275,52.42512742],[13.08304692,52.42535433],[13.08338976,52.42549929],[13.08383147,52.42563637],[13.08469457,52.4258361],[13.08543803,52.42597519],[13.0861667,52.42602699],[13.08688012,52.42603024],[13.08736154,52.42600459],[13.08802442,52.42580286],[13.08847496,52.42562689],[13.08924852,52.42533901],[13.08990816,52.42509349],[13.09036904,52.42495885],[13.09111168,52.42479763],[13.09202365,52.42459963],[13.09538946,52.42452582],[13.09577826,52.42455729],[13.09642169,52.42494915],[13.09685838,52.42555201],[13.09634055,52.42589026],[13.0952146,52.42490537],[13.09282838,52.42487233],[13.09138243,52.42511806],[13.09045828,52.42527513],[13.08910408,52.42568442],[13.08711609,52.42634644],[13.08856693,52.428524],[13.08824592,52.42869973]]]},"geometry_name":"geom","properties":{"gisid":393,"objekt":"Grenzstreifen"},"bbox":[13.0815022,52.42452582,13.09685838,52.42869973]},{"type":"Feature","id":"d_grenzstreifen.395","geometry":{"type":"Polygon","coordinates":[[[13.07987855,52.42349708],[13.08090341,52.42342475],[13.08062817,52.42388869],[13.08182355,52.42465987],[13.0815022,52.42483325],[13.08084808,52.42435239],[13.08055483,52.42418032],[13.08031572,52.42415707],[13.08001611,52.42412788],[13.07951713,52.42428292],[13.0768574,52.42526861],[13.07569567,52.42568262],[13.07524885,52.42555013],[13.07587051,52.42528165],[13.07726106,52.42480659],[13.0780834,52.42454566],[13.07952152,52.42392854],[13.08007352,52.42382478],[13.07987855,52.42349708]]]},"geometry_name":"geom","properties":{"gisid":395,"objekt":"Grenzstreifen"},"bbox":[13.07524885,52.42342475,13.08182355,52.42568262]},{"type":"Feature","id":"d_grenzstreifen.407","geometry":{"type":"Polygon","coordinates":[[[13.09799217,52.40989746],[13.09862271,52.40970427],[13.09867872,52.40968711],[13.09878385,52.4096549],[13.10002293,52.4089431],[13.10010766,52.40889443],[13.10018731,52.40898728],[13.09852579,52.40987446],[13.09892603,52.41028331],[13.09911514,52.41077835],[13.09916621,52.41094585],[13.09911549,52.41109042],[13.09903248,52.4112049],[13.0978913,52.41166568],[13.09690535,52.4128789],[13.09795065,52.41324725],[13.09999616,52.41358843],[13.10051072,52.41357824],[13.10043016,52.41314348],[13.10088744,52.4117699],[13.10091437,52.4115653],[13.10090577,52.41125818],[13.10081315,52.41046386],[13.10211475,52.41018253],[13.10457432,52.40962702],[13.10499081,52.40967098],[13.10565059,52.40945918],[13.10600846,52.40943758],[13.10705665,52.4096626],[13.10729416,52.40994826],[13.10730108,52.41074969],[13.10745766,52.41144814],[13.10758435,52.41200671],[13.10757719,52.41226882],[13.10744412,52.41282247],[13.10742333,52.41320186],[13.10765237,52.41316791],[13.10953431,52.41283912],[13.10972206,52.4121459],[13.11023497,52.41052786],[13.11048283,52.40954249],[13.10848553,52.40932654],[13.10693983,52.40954194],[13.10681766,52.40951644],[13.10608357,52.40841222],[13.10495789,52.40832238],[13.10402576,52.40809107],[13.10355972,52.40814643],[13.10343853,52.40808085],[13.10400282,52.40800459],[13.10445269,52.40807549],[13.10502994,52.40826508],[13.10613987,52.40832903],[13.10688285,52.40948406],[13.10847894,52.4092745],[13.11063594,52.40948516],[13.11038189,52.41035583],[13.11171678,52.41046009],[13.11144867,52.41136458],[13.11007918,52.41124102],[13.10961127,52.41293161],[13.10769966,52.41331292],[13.10735681,52.41330393],[13.1071614,52.41317681],[13.10728558,52.41285586],[13.10737732,52.41263439],[13.10745045,52.41228324],[13.10746851,52.41213602],[13.10745267,52.41191248],[13.10732379,52.41149928],[13.10726045,52.41119923],[13.10715549,52.41064982],[13.10713484,52.40995768],[13.10691261,52.40969092],[13.10609377,52.40951012],[13.10575551,52.40952832],[13.10522027,52.4098705],[13.10461358,52.40972179],[13.10095301,52.41052705],[13.10102381,52.41128866],[13.10102779,52.4116407],[13.10101435,52.4117405],[13.1005503,52.41316663],[13.10069728,52.41368392],[13.10021921,52.41369088],[13.09912365,52.41355467],[13.0983313,52.41340548],[13.09768275,52.4133026],[13.09649518,52.41304492],[13.09777841,52.41161922],[13.09895962,52.41111261],[13.09894787,52.41074832],[13.09871583,52.41035362],[13.09826534,52.40993806],[13.09799217,52.40989746]]]},"geometry_name":"geom","properties":{"gisid":407,"objekt":"Grenzstreifen"},"bbox":[13.09649518,52.40800459,13.11171678,52.41369088]},{"type":"Feature","id":"d_grenzstreifen.414","geometry":{"type":"Polygon","coordinates":[[[13.11088549,52.40306044],[13.11104552,52.40314301],[13.11072157,52.40331879],[13.11036497,52.40353381],[13.11008826,52.40379839],[13.10989179,52.40408301],[13.1096952,52.40437747],[13.10956414,52.40457378],[13.10949804,52.40472115],[13.10936721,52.40489777],[13.1092358,52.40512361],[13.10905645,52.40531971],[13.10890964,52.40548641],[13.10864981,52.40568216],[13.10842275,52.40582882],[13.10814728,52.40598512],[13.10798506,52.40609269],[13.10780732,52.40615098],[13.1076587,52.40628204],[13.10737589,52.40639942],[13.10719951,52.40645042],[13.10689182,52.40654142],[13.10619747,52.40674677],[13.10585699,52.40675294],[13.10501877,52.40692947],[13.10478739,52.40699412],[13.10437694,52.40711631],[13.10390657,52.40732244],[13.10394414,52.40752197],[13.10297541,52.4078779],[13.10292074,52.40784556],[13.10309222,52.40775147],[13.10308303,52.40755397],[13.10282016,52.40735534],[13.10458434,52.40674316],[13.10621989,52.40655229],[13.10691455,52.40631557],[13.1073898,52.40610609],[13.10798142,52.40580543],[13.10849157,52.40556789],[13.10884087,52.40528028],[13.1091576,52.40491473],[13.10926282,52.40469679],[13.10950924,52.40433115],[13.10967405,52.40404272],[13.10986108,52.40382492],[13.11021102,52.40348089],[13.11059472,52.40320752],[13.11088549,52.40306044]]]},"geometry_name":"geom","properties":{"gisid":414,"objekt":"Grenzstreifen"},"bbox":[13.10282016,52.40306044,13.11104552,52.4078779]},{"type":"Feature","id":"d_grenzstreifen.420","geometry":{"type":"Polygon","coordinates":[[[13.11531645,52.4017118],[13.11587758,52.40159869],[13.11623994,52.4014543],[13.11664917,52.40112516],[13.11710402,52.40067578],[13.11754546,52.40038854],[13.11793932,52.40022803],[13.1183441,52.40005087],[13.11870388,52.39991396],[13.11893608,52.39977391],[13.11906387,52.39968984],[13.11920408,52.39952823],[13.11933292,52.39935248],[13.11940355,52.39922584],[13.11953199,52.39908535],[13.1198469,52.39876934],[13.12001065,52.39856553],[13.12031403,52.39824948],[13.12066287,52.39799003],[13.12133652,52.39755567],[13.12283381,52.39667348],[13.12295335,52.39630021],[13.12309265,52.39621618],[13.12341712,52.39606946],[13.12426211,52.39576981],[13.12522173,52.39552705],[13.1259146,52.39542421],[13.12601849,52.39562743],[13.12526107,52.39572266],[13.12438945,52.39595522],[13.12380724,52.39620869],[13.12345042,52.39645327],[13.12288432,52.39693334],[13.12229633,52.39731398],[13.12180371,52.39759138],[13.12147431,52.3977584],[13.12107676,52.39796005],[13.12077535,52.39818426],[13.12039263,52.39843317],[13.1200944,52.39862433],[13.11994686,52.39885995],[13.11981959,52.39918227],[13.11969025,52.39930613],[13.11963489,52.39940004],[13.11952066,52.39953737],[13.11937356,52.39973362],[13.11921117,52.39986089],[13.11903279,52.39997826],[13.11864486,52.40012425],[13.11827313,52.40026047],[13.11777799,52.40046495],[13.11738302,52.40068978],[13.1170242,52.40110168],[13.11664894,52.40154305],[13.11629261,52.40173839],[13.11564716,52.40188327],[13.11492417,52.40197668],[13.1144221,52.40204531],[13.114067,52.40213237],[13.11351799,52.40228749],[13.11274296,52.4025007],[13.11219394,52.40265581],[13.1115795,52.40289924],[13.11104552,52.40314301],[13.11088549,52.40306044],[13.11141786,52.40282324],[13.11190482,52.40259263],[13.11217091,52.40251622],[13.11269179,52.40234217],[13.11354842,52.4020497],[13.11404534,52.40195312],[13.11482655,52.40177226],[13.11531645,52.4017118]]]},"geometry_name":"geom","properties":{"gisid":420,"objekt":"Grenzstreifen"},"bbox":[13.11088549,52.39542421,13.12601849,52.40314301]},{"type":"Feature","id":"d_grenzstreifen.428","geometry":{"type":"Polygon","coordinates":[[[13.1259146,52.39542421],[13.12667592,52.39538511],[13.12758639,52.39541012],[13.12801188,52.39550359],[13.12831862,52.39558875],[13.12848397,52.39555495],[13.12864481,52.395605],[13.12864386,52.39568962],[13.12917271,52.39581879],[13.13036624,52.39630336],[13.13173115,52.39692969],[13.13206298,52.39710486],[13.13284293,52.39751263],[13.13424249,52.39813907],[13.13496535,52.39845238],[13.13656477,52.39795478],[13.13671402,52.39801182],[13.13726256,52.39792946],[13.13725766,52.39785187],[13.13723945,52.39775153],[13.13493992,52.39745119],[13.13499125,52.39731428],[13.1355327,52.39570308],[13.1356962,52.39615039],[13.13512013,52.39730467],[13.13526343,52.39744308],[13.13800443,52.39770055],[13.13804308,52.39784345],[13.13759923,52.39796499],[13.13710027,52.3980391],[13.13672601,52.39809849],[13.13632538,52.3981858],[13.13491622,52.3986377],[13.13416338,52.39831955],[13.13312286,52.39782301],[13.13251454,52.39753499],[13.13197027,52.39727676],[13.13158637,52.39706843],[13.13109006,52.39683994],[13.13075378,52.39669087],[13.13014538,52.39641268],[13.12886358,52.39591508],[13.12847871,52.39579533],[13.12769245,52.39559513],[13.12671109,52.3955713],[13.12601849,52.39562743],[13.1259146,52.39542421]]]},"geometry_name":"geom","properties":{"gisid":428,"objekt":"Grenzstreifen"},"bbox":[13.1259146,52.39538511,13.13804308,52.3986377]},{"type":"Feature","id":"d_grenzstreifen.435","geometry":{"type":"Polygon","coordinates":[[[13.13861885,52.39598037],[13.13730338,52.39615459],[13.13716658,52.39615648],[13.1356962,52.39615039],[13.1355327,52.39570308],[13.13513457,52.39562375],[13.13528586,52.39545679],[13.13434549,52.39528434],[13.13232686,52.3950331],[13.13041045,52.39491842],[13.1302623,52.39493935],[13.12748963,52.39469049],[13.12707799,52.39462565],[13.12658249,52.39468665],[13.12517075,52.39442841],[13.12394074,52.39415828],[13.12293184,52.39404047],[13.12294376,52.39398177],[13.1229651,52.39383432],[13.12297618,52.39376565],[13.12571449,52.39393878],[13.12663488,52.39403409],[13.12840182,52.3941482],[13.13429681,52.39481279],[13.1347749,52.39437296],[13.13390101,52.39385134],[13.13420565,52.39354117],[13.13492728,52.39398867],[13.13604218,52.39464632],[13.13861885,52.39598037]]]},"geometry_name":"geom","properties":{"gisid":435,"objekt":"Grenzstreifen"},"bbox":[13.12293184,52.39354117,13.13861885,52.39615648]},{"type":"Feature","id":"d_grenzstreifen.440","geometry":{"type":"Polygon","coordinates":[[[13.13162627,52.39176826],[13.13245519,52.3923207],[13.13351378,52.39311209],[13.13414135,52.39350128],[13.13420565,52.39354117],[13.13390101,52.39385134],[13.13279571,52.39319158],[13.12786481,52.39189136],[13.12748231,52.3917676],[13.12715927,52.3917053],[13.12663106,52.38949802],[13.12786211,52.38873064],[13.12744538,52.38826452],[13.12754831,52.38825499],[13.12805479,52.38875842],[13.12670438,52.38957561],[13.12724187,52.39166252],[13.13097284,52.39175251],[13.13162627,52.39176826]]]},"geometry_name":"geom","properties":{"gisid":440,"objekt":"Grenzstreifen"},"bbox":[13.12663106,52.38825499,13.13420565,52.39385134]},{"type":"Feature","id":"d_grenzstreifen.446","geometry":{"type":"Polygon","coordinates":[[[13.13325784,52.3872255],[13.13126102,52.3871418],[13.13100077,52.38716583],[13.13073987,52.38724845],[13.12941297,52.3879576],[13.12890886,52.38825267],[13.12825713,52.38863232],[13.12772693,52.38812874],[13.12782893,52.38810427],[13.1280062,52.38802619],[13.13061724,52.38683237],[13.13129806,52.38678481],[13.13355249,52.38686965],[13.1337348,52.3872955],[13.13502881,52.38845874],[13.13512043,52.38863083],[13.13404861,52.38871065],[13.13325784,52.3872255]]]},"geometry_name":"geom","properties":{"gisid":446,"objekt":"Grenzstreifen"},"bbox":[13.12772693,52.38678481,13.13512043,52.38871065]},{"type":"Feature","id":"d_grenzstreifen.453","geometry":{"type":"Polygon","coordinates":[[[13.13512043,52.38863083],[13.13259694,52.39092068],[13.13417521,52.39231368],[13.1357453,52.39326682],[13.13716884,52.39409342],[13.13916168,52.39497625],[13.14065582,52.3955681],[13.14430517,52.39512829],[13.14797232,52.39456426],[13.14865838,52.39451423],[13.14905603,52.39512197],[13.14780874,52.39524089],[13.14575216,52.39543634],[13.1437931,52.39607636],[13.14285526,52.39673392],[13.14031518,52.39622955],[13.13844823,52.39550186],[13.13686005,52.39464136],[13.13522429,52.39373875],[13.1341232,52.39307278],[13.13283854,52.3921094],[13.13189759,52.39139745],[13.13064957,52.39042107],[13.13404861,52.38871065],[13.13512043,52.38863083]]]},"geometry_name":"geom","properties":{"gisid":453,"objekt":"Grenzstreifen"},"bbox":[13.13064957,52.38863083,13.14905603,52.39673392]},{"type":"Feature","id":"d_grenzstreifen.461","geometry":{"type":"Polygon","coordinates":[[[13.14905603,52.39512197],[13.14865838,52.39451423],[13.15133711,52.39431884],[13.15343145,52.39409871],[13.15879424,52.39331259],[13.1625538,52.39340359],[13.17149041,52.39378875],[13.17265758,52.39411318],[13.17266433,52.39683268],[13.173003,52.39777496],[13.17249069,52.397825],[13.17152142,52.3975835],[13.17195782,52.39569291],[13.1693046,52.39452779],[13.16883424,52.39437312],[13.1681128,52.39433636],[13.16533792,52.39420667],[13.15874891,52.39388468],[13.15364433,52.3947379],[13.15093582,52.39494273],[13.14905603,52.39512197]]]},"geometry_name":"geom","properties":{"gisid":461,"objekt":"Grenzstreifen"},"bbox":[13.14865838,52.39331259,13.173003,52.397825]},{"type":"Feature","id":"d_grenzstreifen.468","geometry":{"type":"Polygon","coordinates":[[[13.17191288,52.39875357],[13.17099256,52.3986012],[13.17076197,52.39922496],[13.16993842,52.40420373],[13.17060641,52.40464814],[13.17094613,52.4047696],[13.17539979,52.40605294],[13.17589085,52.40608993],[13.17657442,52.40627243],[13.18151639,52.40773384],[13.18084276,52.40829041],[13.17606341,52.40687389],[13.17196302,52.40594108],[13.17021922,52.40539089],[13.16956208,52.40448823],[13.1691728,52.40185428],[13.1691742,52.39903502],[13.16938647,52.39878116],[13.17013028,52.39786685],[13.17212453,52.39833309],[13.17191288,52.39875357]]]},"geometry_name":"geom","properties":{"gisid":468,"objekt":"Grenzstreifen"},"bbox":[13.1691728,52.39786685,13.18151639,52.40829041]},{"type":"Feature","id":"d_grenzstreifen.475","geometry":{"type":"Polygon","coordinates":[[[13.19649259,52.41189053],[13.19669029,52.41187906],[13.19684422,52.41231381],[13.19690612,52.41254644],[13.19691662,52.41281084],[13.18805307,52.41038362],[13.18749882,52.41026267],[13.18084276,52.40829041],[13.18151639,52.40773384],[13.18188747,52.40785507],[13.19615048,52.41209009],[13.19649259,52.41189053]]]},"geometry_name":"geom","properties":{"gisid":475,"objekt":"Grenzstreifen"},"bbox":[13.18084276,52.40773384,13.19691662,52.41281084]},{"type":"Feature","id":"d_grenzstreifen.482","geometry":{"type":"Polygon","coordinates":[[[13.22457122,52.42043476],[13.22471656,52.42082265],[13.22421565,52.42071867],[13.22347218,52.42053018],[13.222486,52.42027577],[13.22084746,52.41985176],[13.21998254,52.41964424],[13.21703953,52.41886236],[13.21065882,52.4166624],[13.19780659,52.41297483],[13.19773926,52.41254103],[13.19763044,52.41215829],[13.19743071,52.41172458],[13.1976941,52.41172744],[13.19857755,52.41273068],[13.22428194,52.4204436],[13.22442698,52.42039498],[13.22457122,52.42043476]]]},"geometry_name":"geom","properties":{"gisid":482,"objekt":"Grenzstreifen"},"bbox":[13.19743071,52.41172458,13.22471656,52.42082265]},{"type":"Feature","id":"d_grenzstreifen.487","geometry":{"type":"Polygon","coordinates":[[[13.22535997,52.42080171],[13.22471656,52.42082265],[13.22457122,52.42043476],[13.22722126,52.42054197],[13.22900656,52.42033188],[13.22961769,52.42026518],[13.23038931,52.42021865],[13.23172333,52.42016418],[13.23300923,52.42009971],[13.23552603,52.42062599],[13.23703244,52.42058873],[13.23889459,52.42060244],[13.2389752,52.42035105],[13.23912334,52.42027722],[13.24371745,52.4203557],[13.24341642,52.4183304],[13.24379814,52.41821541],[13.24439932,52.4181667],[13.24510222,52.41833362],[13.24656092,52.41675384],[13.24755216,52.41391737],[13.24762269,52.40942933],[13.24784053,52.40925363],[13.24789104,52.4089696],[13.24719776,52.40759542],[13.24649018,52.40695616],[13.24828964,52.40478023],[13.24947764,52.40519198],[13.24774281,52.40729518],[13.24760678,52.40754773],[13.24822654,52.40908827],[13.24798206,52.40956767],[13.24797837,52.40999885],[13.2479839,52.41122383],[13.2479448,52.41204688],[13.2479653,52.41433028],[13.24749133,52.41711092],[13.24742851,52.41734854],[13.24725135,52.41801874],[13.24710175,52.41872844],[13.2459436,52.42109557],[13.24393881,52.4210169],[13.23723876,52.42075489],[13.23631198,52.42080477],[13.23567406,52.42080266],[13.23304232,52.42027663],[13.23259823,52.42030073],[13.23053202,52.42043985],[13.22853869,52.42054641],[13.22763801,52.42065143],[13.22652684,52.42076371],[13.22535997,52.42080171]]]},"geometry_name":"geom","properties":{"gisid":487,"objekt":"Grenzstreifen"},"bbox":[13.22457122,52.40478023,13.24947764,52.42109557]},{"type":"Feature","id":"d_grenzstreifen.495","geometry":{"type":"Polygon","coordinates":[[[13.28252107,52.40756804],[13.28209145,52.40783293],[13.27681465,52.40489278],[13.27625841,52.40478465],[13.2758993,52.40469841],[13.27576124,52.40464877],[13.27510011,52.40452524],[13.27365038,52.40436519],[13.27258384,52.40421293],[13.27157506,52.40409633],[13.27096024,52.40405899],[13.27035709,52.40401458],[13.26975343,52.40403406],[13.26883658,52.40403129],[13.26803567,52.40404306],[13.26684029,52.40403942],[13.26629459,52.40406615],[13.26546897,52.40426239],[13.26448074,52.40447232],[13.26373634,52.40466879],[13.26291028,52.40491469],[13.2619331,52.40518852],[13.26102555,52.40546255],[13.26040902,52.405631],[13.25965303,52.40582031],[13.25888585,52.4059599],[13.25842101,52.40602943],[13.25793302,52.4060918],[13.25745699,52.40611161],[13.25712053,52.40609636],[13.25668898,52.40608428],[13.25623858,52.4060794],[13.25590206,52.40607125],[13.25532187,52.40605523],[13.2549275,52.4060256],[13.25442867,52.40599563],[13.25393026,52.40591598],[13.25360583,52.40585107],[13.25311915,52.40575726],[13.25250499,52.40564174],[13.25212283,52.40554115],[13.25164837,52.40537638],[13.25104667,52.40516152],[13.2501787,52.40486773],[13.25005146,52.40481763],[13.24865152,52.40430208],[13.24876902,52.40415981],[13.25035762,52.40468488],[13.25080954,52.40485015],[13.25146665,52.40511689],[13.25204221,52.40528254],[13.25253525,52.40546054],[13.25506664,52.405834],[13.25543733,52.40586037],[13.25780676,52.40589299],[13.25904509,52.4056574],[13.25991177,52.40550886],[13.26104799,52.40515951],[13.26214277,52.40483523],[13.26354764,52.40438586],[13.26389511,52.40409785],[13.2645846,52.40389535],[13.26528065,52.40374011],[13.26632994,52.4035902],[13.26789402,52.40343758],[13.26891277,52.40343183],[13.26933131,52.40303267],[13.26950481,52.40298601],[13.2714524,52.40313353],[13.27395869,52.40332991],[13.27589779,52.40344016],[13.27822928,52.40417692],[13.27891665,52.40434222],[13.27988637,52.40456095],[13.28154604,52.40541987],[13.28247259,52.40585396],[13.28220295,52.40608002],[13.28252107,52.40756804]]]},"geometry_name":"geom","properties":{"gisid":495,"objekt":"Grenzstreifen"},"bbox":[13.24865152,52.40298601,13.28252107,52.40783293]},{"type":"Feature","id":"d_grenzstreifen.502","geometry":{"type":"Polygon","coordinates":[[[13.34324648,52.41131816],[13.34213377,52.41122158],[13.34190357,52.41119755],[13.341291,52.41093783],[13.33998893,52.41044166],[13.33861057,52.40987487],[13.33683618,52.40921318],[13.33443634,52.40832299],[13.32970745,52.40656214],[13.32742066,52.40571754],[13.32385906,52.40436314],[13.32057497,52.4031167],[13.31959281,52.40279179],[13.31864865,52.40241371],[13.31580373,52.40124025],[13.3144895,52.40073595],[13.31382638,52.40042899],[13.31204496,52.39906261],[13.31115524,52.40003844],[13.31079457,52.4003818],[13.3100347,52.40108407],[13.30910412,52.40202445],[13.3082402,52.40295337],[13.30724803,52.40392107],[13.30482594,52.4062074],[13.30380774,52.40721412],[13.30219784,52.40863397],[13.30004657,52.41056879],[13.29838424,52.41212148],[13.29718584,52.41322938],[13.29588376,52.41450131],[13.29521881,52.41433316],[13.29376081,52.41398503],[13.29240533,52.41362629],[13.29105499,52.41291346],[13.2903192,52.4124392],[13.28932668,52.41187404],[13.28851031,52.41140052],[13.28805962,52.41113659],[13.28736026,52.41077095],[13.28595586,52.40998771],[13.28464979,52.409267],[13.28285229,52.40825681],[13.28209145,52.40783293],[13.28252107,52.40756804],[13.28479883,52.40880969],[13.28592707,52.40948088],[13.28662754,52.40990744],[13.28673013,52.40995497],[13.28683271,52.4100025],[13.28810257,52.41064656],[13.28916975,52.41122932],[13.29001104,52.41171062],[13.29079109,52.41211612],[13.29121947,52.41269705],[13.29208218,52.41307756],[13.29333686,52.41340877],[13.29546841,52.41411245],[13.2953465,52.41423045],[13.29586049,52.41441239],[13.29791456,52.41227309],[13.29786395,52.41158149],[13.29941629,52.41028984],[13.30074495,52.40935883],[13.30173938,52.40864323],[13.30190572,52.40844205],[13.30244492,52.40790825],[13.30367148,52.4065061],[13.30444042,52.40561343],[13.30510917,52.40485948],[13.30707618,52.40301187],[13.30786405,52.40233346],[13.30929513,52.40102666],[13.30956469,52.40078793],[13.31082414,52.39971851],[13.31211566,52.39843808],[13.31221874,52.39849739],[13.31447462,52.39989846],[13.31927193,52.40173663],[13.32213197,52.40281584],[13.3239528,52.40351575],[13.32771991,52.40492739],[13.32797504,52.40522155],[13.32978366,52.40591924],[13.33252665,52.40691671],[13.33424468,52.40750567],[13.34035482,52.40829258],[13.34079451,52.40825334],[13.34101698,52.40809262],[13.34222158,52.40734177],[13.34296281,52.40766293],[13.34324648,52.41131816]]]},"geometry_name":"geom","properties":{"gisid":502,"objekt":"Grenzstreifen"},"bbox":[13.28209145,52.39843808,13.34324648,52.41450131]},{"type":"Feature","id":"d_grenzstreifen.508","geometry":{"type":"Polygon","coordinates":[[[13.34296281,52.40766293],[13.34222158,52.40734177],[13.35169517,52.40143536],[13.35126532,52.40098067],[13.35161675,52.40079245],[13.35217093,52.401134],[13.35610188,52.39858793],[13.35607334,52.39847374],[13.3561098,52.39840656],[13.3561502,52.39833194],[13.35619892,52.39828693],[13.35630845,52.3982458],[13.35642449,52.3982022],[13.35665997,52.39818276],[13.35857586,52.39689843],[13.36071516,52.39574668],[13.36272236,52.39490363],[13.36505903,52.39406123],[13.36783004,52.39309368],[13.36976294,52.39080907],[13.36903651,52.38773973],[13.37688641,52.38711618],[13.38526272,52.38736548],[13.38589677,52.38703311],[13.38762349,52.37728688],[13.38838281,52.37783815],[13.38813391,52.37894106],[13.38801542,52.37930609],[13.38802122,52.38086593],[13.38806757,52.38175814],[13.38811589,52.38228255],[13.38803423,52.38319799],[13.38799316,52.38369874],[13.38790013,52.38434808],[13.38731675,52.38816579],[13.38723798,52.38854126],[13.38525604,52.3884355],[13.37867074,52.38812449],[13.37584394,52.38814983],[13.37174993,52.38834453],[13.37025325,52.38838042],[13.371822,52.39359566],[13.37187213,52.39377576],[13.36897481,52.39486506],[13.36820559,52.39515293],[13.36580833,52.3960163],[13.36496218,52.39632746],[13.36415449,52.39662304],[13.36233462,52.3971746],[13.36046189,52.39799991],[13.35929517,52.39841986],[13.35826821,52.39899662],[13.35780603,52.39926164],[13.35615062,52.40008738],[13.35441852,52.40088944],[13.35303166,52.40171575],[13.35259506,52.40197298],[13.35167106,52.40242472],[13.35086263,52.40280629],[13.34907748,52.40387422],[13.34637988,52.40555818],[13.34539077,52.40616622],[13.34296281,52.40766293]]]},"geometry_name":"geom","properties":{"gisid":508,"objekt":"Grenzstreifen"},"bbox":[13.34222158,52.37728688,13.38838281,52.40766293]},{"type":"Feature","id":"d_grenzstreifen.517","geometry":{"type":"Polygon","coordinates":[[[13.41769155,52.37621848],[13.41552229,52.37627918],[13.41259352,52.37639912],[13.40987908,52.37656528],[13.40711861,52.37682731],[13.4045992,52.37690086],[13.40236042,52.37710792],[13.40109634,52.37726053],[13.39835887,52.37745874],[13.39665754,52.37758065],[13.39504628,52.37759315],[13.3922709,52.37769724],[13.38838281,52.37783815],[13.38762349,52.37728688],[13.39340192,52.37706902],[13.39448105,52.37732754],[13.39801003,52.37715899],[13.39809865,52.3770782],[13.39829676,52.37714605],[13.39902799,52.37707343],[13.40076238,52.37690656],[13.40206301,52.37661404],[13.40246853,52.37631736],[13.40473373,52.37584464],[13.40750121,52.37581042],[13.41152382,52.37573904],[13.41590074,52.37558938],[13.41785448,52.37497949],[13.41822538,52.37559493],[13.41769155,52.37621848]]]},"geometry_name":"geom","properties":{"gisid":517,"objekt":"Grenzstreifen"},"bbox":[13.38762349,52.37497949,13.41822538,52.37783815]},{"type":"Feature","id":"d_grenzstreifen.522","geometry":{"type":"Polygon","coordinates":[[[13.41798291,52.3762071],[13.41769155,52.37621848],[13.41822538,52.37559493],[13.41785448,52.37497949],[13.41823621,52.37486032],[13.41846198,52.37563158],[13.41798291,52.3762071]]]},"geometry_name":"geom","properties":{"gisid":522,"objekt":"Grenzstreifen"},"bbox":[13.41769155,52.37486032,13.41846198,52.37621848]},{"type":"Feature","id":"d_grenzstreifen.525","geometry":{"type":"Polygon","coordinates":[[[13.41798291,52.3762071],[13.41846198,52.37563158],[13.41823621,52.37486032],[13.41880882,52.37468155],[13.41893799,52.37447259],[13.41921926,52.37459217],[13.41983351,52.37485332],[13.42176589,52.37535402],[13.42291275,52.37671583],[13.42605074,52.38138627],[13.42864005,52.38531481],[13.42896938,52.38643492],[13.42892224,52.38668822],[13.42751592,52.38579656],[13.42694326,52.38498817],[13.42465526,52.38168847],[13.42100524,52.37637346],[13.42085497,52.3761066],[13.41802726,52.37620537],[13.41798291,52.3762071]]]},"geometry_name":"geom","properties":{"gisid":525,"objekt":"Grenzstreifen"},"bbox":[13.41798291,52.37447259,13.42896938,52.38668822]},{"type":"Feature","id":"d_grenzstreifen.534","geometry":{"type":"Polygon","coordinates":[[[13.51409069,52.4012864],[13.51355704,52.4011354],[13.51298997,52.40102207],[13.50918107,52.40039112],[13.50696654,52.40006367],[13.50562519,52.39986098],[13.50101866,52.39933736],[13.50074025,52.39930609],[13.49899411,52.3990177],[13.49729493,52.39873892],[13.49499528,52.39852548],[13.49212318,52.3980344],[13.49059237,52.3977384],[13.48677041,52.3974242],[13.48488524,52.39711996],[13.48355679,52.39690154],[13.48229198,52.39658252],[13.47971195,52.39589017],[13.4791466,52.39840609],[13.47899229,52.39912604],[13.47886277,52.40000089],[13.47851829,52.40079803],[13.47814911,52.4014093],[13.47752408,52.40280234],[13.4775607,52.40320505],[13.47757504,52.40338269],[13.47742029,52.40354558],[13.47695036,52.40398636],[13.47674674,52.40429584],[13.47666996,52.40453579],[13.47637716,52.40500777],[13.47591823,52.40592866],[13.47576526,52.40623046],[13.47434014,52.40828065],[13.47398347,52.40889966],[13.47315494,52.410486],[13.47256912,52.41144542],[13.4718817,52.41248214],[13.47091356,52.41411474],[13.46893735,52.41785994],[13.46866954,52.4183784],[13.46796715,52.42000358],[13.46754886,52.42009594],[13.46354316,52.42104292],[13.45940348,52.42053381],[13.45874536,52.42040898],[13.45673338,52.4199415],[13.45481015,52.41945863],[13.45320383,52.41891424],[13.45193922,52.41844003],[13.44968777,52.41772428],[13.44799302,52.41715646],[13.4470832,52.4166595],[13.44527433,52.41614567],[13.44352872,52.41565514],[13.44156839,52.41504036],[13.43999973,52.41465072],[13.43884833,52.41441659],[13.43864581,52.41439304],[13.43543286,52.41352379],[13.43236615,52.41259731],[13.43200186,52.41246341],[13.42821354,52.41186597],[13.4246532,52.41117607],[13.42169966,52.41045234],[13.41954042,52.41012403],[13.41882099,52.4099489],[13.41854018,52.40920658],[13.4183377,52.40793121],[13.41851259,52.40701583],[13.41943704,52.4050787],[13.41996848,52.40370335],[13.42268734,52.39768074],[13.42356781,52.39575814],[13.42389327,52.39502847],[13.42475463,52.39311742],[13.42517579,52.39216767],[13.42576917,52.39083571],[13.42670767,52.38858864],[13.42707149,52.38773152],[13.4274366,52.38658462],[13.42751592,52.38579656],[13.42892224,52.38668822],[13.42815256,52.38874493],[13.42575801,52.39351404],[13.42539075,52.39438493],[13.42515261,52.39505994],[13.423391,52.40015423],[13.42126299,52.40478551],[13.42010765,52.40782574],[13.42024878,52.40893552],[13.4269721,52.41050398],[13.43629866,52.41248788],[13.43734729,52.41363488],[13.43886742,52.41403101],[13.44284296,52.41514678],[13.44600001,52.41606432],[13.45117362,52.4177543],[13.45263506,52.41825753],[13.45354865,52.4182372],[13.45402656,52.41836686],[13.45924434,52.41969872],[13.46254934,52.42036549],[13.46643239,52.41976456],[13.46729456,52.41804415],[13.47271772,52.40845268],[13.47271806,52.40835681],[13.47269346,52.40829836],[13.4727092,52.408263],[13.4727264,52.40822421],[13.47275724,52.4082052],[13.47280746,52.40817924],[13.47287318,52.40814525],[13.47301277,52.40812951],[13.47313046,52.40809372],[13.47437227,52.40596229],[13.47640041,52.40266379],[13.47542419,52.40122996],[13.4755928,52.40111832],[13.47577529,52.40122593],[13.47598776,52.4011233],[13.47582719,52.4010202],[13.47597363,52.40097565],[13.47686705,52.40099161],[13.47883779,52.39490805],[13.48274176,52.39562139],[13.48567843,52.39616825],[13.49001775,52.39683033],[13.4935377,52.39736302],[13.50094933,52.39846254],[13.50629293,52.39920194],[13.5091676,52.39960413],[13.5143522,52.40053726],[13.51485283,52.40052663],[13.51473286,52.40069728],[13.51607537,52.40111047],[13.51679409,52.40162025],[13.52153785,52.40592134],[13.52282556,52.40808609],[13.52346005,52.40971806],[13.52473795,52.41387638],[13.52445387,52.41422257],[13.52409012,52.41560799],[13.52369988,52.41811097],[13.52102137,52.42138553],[13.51979935,52.42286325],[13.51977267,52.42293854],[13.51978757,52.42298532],[13.51980763,52.42304857],[13.51992474,52.42312765],[13.52011633,52.42321592],[13.52026042,52.42324905],[13.52067395,52.42354287],[13.52293739,52.42591921],[13.52298673,52.42656149],[13.52183827,52.42711377],[13.52180766,52.42778275],[13.5198452,52.42808911],[13.51931417,52.42814764],[13.50927082,52.42993771],[13.50663608,52.43152817],[13.50507016,52.43053826],[13.5044432,52.4303326],[13.50655852,52.42936768],[13.50781456,52.42885469],[13.50879184,52.42856539],[13.50968544,52.42828601],[13.5106273,52.42800667],[13.51200361,52.42768349],[13.51284861,52.42752204],[13.51405568,52.42731668],[13.51543158,52.42714097],[13.51774855,52.42696612],[13.5198483,52.42680578],[13.52050938,52.42659227],[13.52047248,52.42613537],[13.52030857,52.42581774],[13.51974067,52.42494997],[13.51971614,52.42461698],[13.51855496,52.42292785],[13.51879722,52.42226988],[13.51952112,52.42146523],[13.51988867,52.42136489],[13.52016806,52.42105541],[13.52051054,52.4208389],[13.52084289,52.41956928],[13.52182011,52.41871837],[13.52228968,52.41830838],[13.5222545,52.41711586],[13.52252259,52.41621012],[13.52295493,52.41545938],[13.52241272,52.41446775],[13.52267888,52.41437506],[13.5227173,52.41418925],[13.52343983,52.41388789],[13.5242129,52.41362528],[13.52370744,52.41316798],[13.52325274,52.41266426],[13.52343058,52.41242437],[13.52301336,52.41214524],[13.52348301,52.41166556],[13.52295257,52.41106885],[13.52334583,52.41075946],[13.52249006,52.40852085],[13.52180921,52.40730452],[13.52087448,52.40637448],[13.52081138,52.40628924],[13.52013564,52.40545798],[13.51912127,52.40440745],[13.51745062,52.40324064],[13.51603976,52.40177466],[13.51409069,52.4012864]]]},"geometry_name":"geom","properties":{"gisid":534,"objekt":"Grenzstreifen"},"bbox":[13.4183377,52.38579656,13.52473795,52.43152817]},{"type":"Feature","id":"d_grenzstreifen.539","geometry":{"type":"Polygon","coordinates":[[[13.47503907,52.45870454],[13.47231889,52.45878847],[13.47231308,52.4588759],[13.4572566,52.45921276],[13.45709104,52.45914497],[13.45711429,52.45899601],[13.45894853,52.4566105],[13.45942089,52.45591178],[13.46037761,52.45451432],[13.46096138,52.45357941],[13.46144563,52.45288066],[13.46153502,52.4527825],[13.46177659,52.45258151],[13.46253985,52.45161847],[13.46287632,52.45123396],[13.46311363,52.45113657],[13.46346461,52.45073533],[13.46408289,52.45013179],[13.46519347,52.44934434],[13.46561246,52.44906866],[13.46691827,52.44842788],[13.46819003,52.44782584],[13.46961428,52.44713177],[13.46979784,52.44714649],[13.47080646,52.44666648],[13.47620391,52.44405203],[13.47663518,52.44392869],[13.47823448,52.44314862],[13.47881958,52.44279474],[13.48011939,52.44209431],[13.48322874,52.44059019],[13.48425088,52.44005866],[13.4846711,52.43993146],[13.48484695,52.43985115],[13.48921525,52.43776312],[13.48942827,52.43759464],[13.49452921,52.43508384],[13.4947524,52.43504051],[13.4973293,52.43380786],[13.49752332,52.4336654],[13.49822476,52.43330137],[13.4984748,52.43322976],[13.49865241,52.43314478],[13.50107776,52.43196671],[13.5044432,52.4303326],[13.50507016,52.43053826],[13.49828659,52.4339257],[13.49558188,52.43531387],[13.493111,52.4365466],[13.4902105,52.43800094],[13.48505042,52.44050655],[13.48200167,52.44195051],[13.47922149,52.44323633],[13.47877497,52.44341588],[13.47702627,52.44426147],[13.47415692,52.44551597],[13.47320866,52.4459587],[13.47215478,52.44643301],[13.47065032,52.44719304],[13.46674591,52.4492058],[13.46456122,52.45081079],[13.46365527,52.45138098],[13.46146695,52.45438862],[13.46051158,52.45586995],[13.45996351,52.45666964],[13.45937691,52.45746255],[13.458702,52.45830914],[13.45935183,52.45868763],[13.46331477,52.45860929],[13.4668198,52.4586045],[13.47235488,52.45849094],[13.4742251,52.45844452],[13.47455626,52.45844059],[13.4761005,52.45837001],[13.47821857,52.45834921],[13.47861144,52.4586711],[13.47861158,52.45867554],[13.47868055,52.45873119],[13.47503907,52.45870454]]]},"geometry_name":"geom","properties":{"gisid":539,"objekt":"Grenzstreifen"},"bbox":[13.45709104,52.4303326,13.50507016,52.45921276]},{"type":"Feature","id":"d_grenzstreifen.541","geometry":{"type":"Polygon","coordinates":[[[13.47901269,52.45900548],[13.47909115,52.45907028],[13.47628488,52.46002926],[13.47612586,52.46022253],[13.47611749,52.46035311],[13.47625131,52.46058545],[13.47638526,52.46077909],[13.47648764,52.46094367],[13.47668491,52.46114707],[13.47698475,52.46146184],[13.47717435,52.46159267],[13.47814029,52.46162774],[13.47719097,52.46193311],[13.47695482,52.46176987],[13.4757915,52.46090114],[13.47564062,52.460537],[13.47551489,52.46023485],[13.47528799,52.45986288],[13.4750993,52.45943675],[13.47508756,52.45916572],[13.47901269,52.45900548]]]},"geometry_name":"geom","properties":{"gisid":541,"objekt":"Grenzstreifen"},"bbox":[13.47508756,52.45900548,13.47909115,52.46193311]},{"type":"Feature","id":"d_grenzstreifen.544","geometry":{"type":"Polygon","coordinates":[[[13.47839861,52.46189559],[13.47829694,52.46293548],[13.47887265,52.46375438],[13.47931677,52.46380221],[13.47912195,52.46490302],[13.47913819,52.46545343],[13.47776863,52.46642507],[13.4776595,52.46662687],[13.47701741,52.46707089],[13.4755516,52.46825523],[13.47476401,52.46893881],[13.47469541,52.46920567],[13.47369109,52.47024692],[13.47353293,52.47045427],[13.47235151,52.47192587],[13.47121788,52.47312847],[13.4707811,52.47373646],[13.47131632,52.47586639],[13.47142157,52.47667305],[13.4714197,52.47720237],[13.4675931,52.47987109],[13.46651697,52.48059939],[13.46492214,52.48168522],[13.46457725,52.4821306],[13.4620278,52.48392105],[13.46178414,52.48398166],[13.45918833,52.48556447],[13.45905729,52.48604895],[13.45870632,52.48609353],[13.45856437,52.48585604],[13.45791906,52.48606973],[13.45671071,52.48541225],[13.45566243,52.4848601],[13.45540453,52.48481422],[13.45297788,52.4860745],[13.45326816,52.48626913],[13.45168491,52.4870741],[13.45156806,52.48699047],[13.45137232,52.48709749],[13.45119702,52.486978],[13.45061001,52.48725135],[13.4510968,52.48762168],[13.45101854,52.48765733],[13.45109638,52.48772898],[13.44774904,52.48958392],[13.44693801,52.48919706],[13.44667095,52.48917157],[13.44496235,52.48804163],[13.44353505,52.48840904],[13.44320272,52.48848006],[13.44296894,52.48833662],[13.44036688,52.4897011],[13.44010957,52.49018017],[13.4417447,52.49150617],[13.44221183,52.49190035],[13.44349586,52.49283814],[13.44304578,52.49294365],[13.44238194,52.49242382],[13.44133874,52.49161688],[13.43978669,52.49040648],[13.43971137,52.49022052],[13.43966194,52.4899107],[13.44343755,52.48796529],[13.4442257,52.48755611],[13.44437817,52.4874944],[13.44675656,52.48903897],[13.44863777,52.48808938],[13.44887912,52.48800457],[13.45032852,52.48717046],[13.45045518,52.4872171],[13.45139579,52.48672293],[13.45204404,52.48638318],[13.4560714,52.48430796],[13.45626272,52.48443801],[13.45813451,52.48584998],[13.45849057,52.48561044],[13.45880862,52.48536311],[13.45954613,52.48487632],[13.46123757,52.48367848],[13.46125069,52.48356235],[13.46385755,52.48173079],[13.46875273,52.47830712],[13.47059617,52.47701642],[13.47037159,52.47597852],[13.46978127,52.47437486],[13.46958009,52.4738945],[13.46975941,52.47339142],[13.47031968,52.47273398],[13.47162981,52.47158194],[13.47224053,52.4709865],[13.47290206,52.47036015],[13.47391983,52.46937806],[13.47427598,52.4690533],[13.47570063,52.46771552],[13.47643766,52.46722863],[13.47790046,52.46582118],[13.47802769,52.4656897],[13.47861286,52.46510194],[13.47864201,52.46397145],[13.47744355,52.46221993],[13.47839861,52.46189559]]]},"geometry_name":"geom","properties":{"gisid":544,"objekt":"Grenzstreifen"},"bbox":[13.43966194,52.46189559,13.47931677,52.49294365]},{"type":"Feature","id":"d_grenzstreifen.553","geometry":{"type":"Polygon","coordinates":[[[13.44970178,52.496209],[13.44780451,52.49479279],[13.44767785,52.49472852],[13.44758424,52.49470067],[13.4474878,52.49467197],[13.44742757,52.4946612],[13.44732177,52.4946507],[13.44720341,52.494639],[13.44713406,52.49464522],[13.4470144,52.49465023],[13.44682938,52.49465805],[13.44669864,52.49467991],[13.44654636,52.49470218],[13.44627971,52.49474509],[13.44579772,52.49472112],[13.44548086,52.49464707],[13.44517688,52.49452659],[13.44499962,52.49444114],[13.44462016,52.49416566],[13.44304578,52.49294365],[13.44349586,52.49283814],[13.44452424,52.49317582],[13.44522715,52.49374268],[13.44564156,52.49372838],[13.44572004,52.49377764],[13.44579798,52.49382545],[13.44644074,52.49427949],[13.4484617,52.49454303],[13.45069354,52.49568085],[13.44970178,52.496209]]]},"geometry_name":"geom","properties":{"gisid":553,"objekt":"Grenzstreifen"},"bbox":[13.44304578,52.49283814,13.45069354,52.496209]},{"type":"Feature","id":"d_grenzstreifen.569","geometry":{"type":"Polygon","coordinates":[[[13.41938783,52.5062428],[13.4193921,52.50573972],[13.4210317,52.50527278],[13.42157452,52.50513476],[13.42188917,52.50509561],[13.4223556,52.50506333],[13.42264844,52.5050506],[13.42300631,52.5050446],[13.42337496,52.50505185],[13.42386277,52.50508577],[13.42443717,52.50515293],[13.42506556,52.5052731],[13.42555292,52.50540627],[13.42593181,52.50554587],[13.42623483,52.50567872],[13.42664611,52.50585146],[13.4270702,52.50604397],[13.42739444,52.50624754],[13.42761297,52.50641864],[13.42779185,52.50667388],[13.42801123,52.50697763],[13.4287476,52.5080263],[13.42897422,52.50808205],[13.42933482,52.50861329],[13.42868747,52.50880936],[13.42781977,52.50781409],[13.42750254,52.5073949],[13.42732804,52.50717068],[13.42721714,52.50699524],[13.42702651,52.50680994],[13.42683575,52.50665384],[13.42656538,52.50645866],[13.42647,52.50638061],[13.42610391,52.50618527],[13.42581738,52.50603874],[13.42548289,52.5059116],[13.42525987,52.50583334],[13.42498899,52.50575499],[13.4248137,52.50570601],[13.42454268,52.50565686],[13.4242558,52.50558822],[13.42390496,52.50554868],[13.42347435,52.50550899],[13.42313933,52.50549868],[13.42270849,52.50550767],[13.42242125,52.50551692],[13.42195841,52.50554532],[13.41990675,52.50608946],[13.41938783,52.5062428]]]},"geometry_name":"geom","properties":{"gisid":569,"objekt":"Grenzstreifen"},"bbox":[13.41938783,52.5050446,13.42933482,52.50880936]},{"type":"Feature","id":"d_grenzstreifen.571","geometry":{"type":"Polygon","coordinates":[[[13.41185999,52.50484623],[13.41414077,52.50409602],[13.41421626,52.50418218],[13.41463673,52.50468582],[13.4146145,52.50479826],[13.4149067,52.50491789],[13.41749634,52.50418606],[13.41814817,52.50508246],[13.41857125,52.5050435],[13.41880959,52.50509024],[13.41900419,52.5052163],[13.4193921,52.50573972],[13.41938783,52.5062428],[13.41828804,52.50628714],[13.41788411,52.50617846],[13.41648297,52.50580579],[13.41434953,52.50528527],[13.41389532,52.50512249],[13.41327847,52.50462009],[13.41208855,52.50501126],[13.41217955,52.50512663],[13.41208619,52.50515764],[13.41185999,52.50484623]]]},"geometry_name":"geom","properties":{"gisid":571,"objekt":"Grenzstreifen"},"bbox":[13.41185999,52.50409602,13.4193921,52.50628714]},{"type":"Feature","id":"d_grenzstreifen.574","geometry":{"type":"Polygon","coordinates":[[[13.41178215,52.5052431],[13.41208619,52.50515764],[13.41217955,52.50512663],[13.41330701,52.5065559],[13.41321407,52.50658519],[13.41291964,52.50667799],[13.41178215,52.5052431]]]},"geometry_name":"geom","properties":{"gisid":574,"objekt":"Grenzstreifen"},"bbox":[13.41178215,52.50512663,13.41330701,52.50667799]},{"type":"Feature","id":"d_grenzstreifen.575","geometry":{"type":"Polygon","coordinates":[[[13.41156657,52.50497804],[13.41185999,52.50484623],[13.41208619,52.50515764],[13.41178215,52.5052431],[13.41156657,52.50497804]]]},"geometry_name":"geom","properties":{"gisid":575,"objekt":"Grenzstreifen"},"bbox":[13.41156657,52.50484623,13.41208619,52.5052431]},{"type":"Feature","id":"d_grenzstreifen.580","geometry":{"type":"Polygon","coordinates":[[[13.41178215,52.5052431],[13.41291964,52.50667799],[13.41143355,52.50714634],[13.4111447,52.50676792],[13.41051067,52.50719093],[13.4100744,52.50727541],[13.40969999,52.50755192],[13.40942288,52.50735861],[13.40865468,52.50679421],[13.40846468,52.50687869],[13.40864668,52.5069807],[13.40644203,52.50904764],[13.4063617,52.50900246],[13.40577518,52.50937444],[13.40319337,52.50952955],[13.40301731,52.50935184],[13.40275176,52.50937447],[13.40263215,52.5095817],[13.40106661,52.50974652],[13.40051181,52.50947883],[13.40037885,52.50958362],[13.40062937,52.50979417],[13.40008582,52.50991432],[13.39880304,52.50958059],[13.3988439,52.50936252],[13.39879101,52.50934626],[13.39882818,52.50919313],[13.39731271,52.50842232],[13.39698179,52.50839744],[13.39236147,52.50819446],[13.39240206,52.50803295],[13.39218864,52.5080322],[13.3921985,52.50790888],[13.3908936,52.50782796],[13.39063395,52.50781648],[13.39065638,52.50767757],[13.39145864,52.50771887],[13.39428808,52.5078965],[13.39885207,52.50818329],[13.398939,52.50815037],[13.39916673,52.50815081],[13.4001575,52.50949594],[13.40044342,52.50939657],[13.40093978,52.50921291],[13.4012764,52.50912753],[13.40213481,52.50879832],[13.40276469,52.50862086],[13.40331893,52.50839031],[13.40367754,52.50824542],[13.40419927,52.50800819],[13.4044277,52.50786966],[13.40452496,52.50793602],[13.40475213,52.50804893],[13.40529311,52.50829477],[13.40542466,52.50818155],[13.40545936,52.50817741],[13.40644196,52.50745056],[13.40693682,52.50705385],[13.40732865,52.50676344],[13.40746841,52.50669674],[13.40803601,52.50626186],[13.40821999,52.50633499],[13.41001676,52.50701322],[13.41156657,52.50497804],[13.41178215,52.5052431]]]},"geometry_name":"geom","properties":{"gisid":580,"objekt":"Grenzstreifen"},"bbox":[13.39063395,52.50497804,13.41291964,52.50991432]},{"type":"Feature","id":"d_grenzstreifen.582","geometry":{"type":"Polygon","coordinates":[[[13.39000587,52.5076498],[13.39065638,52.50767757],[13.39063395,52.50781648],[13.38998351,52.50777548],[13.39000587,52.5076498]]]},"geometry_name":"geom","properties":{"gisid":582,"objekt":"Grenzstreifen"},"bbox":[13.38998351,52.5076498,13.39065638,52.50781648]},{"type":"Feature","id":"d_grenzstreifen.589","geometry":{"type":"Polygon","coordinates":[[[13.39063395,52.50781648],[13.3908936,52.50782796],[13.39082566,52.50815101],[13.39091831,52.50815928],[13.39072626,52.50940317],[13.39019988,52.50936897],[13.38992095,52.50935084],[13.38905833,52.50929479],[13.38915495,52.50878203],[13.38941101,52.50840306],[13.38897565,52.50811895],[13.38879763,52.50821856],[13.38885498,52.50771052],[13.38772979,52.50765194],[13.38770208,52.50787812],[13.38701374,52.50783633],[13.38521352,52.50771955],[13.38526719,52.50759039],[13.3850424,52.50753337],[13.38500241,52.50758177],[13.38430137,52.50744298],[13.38364399,52.50738079],[13.38243504,52.50730986],[13.38092442,52.50727954],[13.37959921,52.50758326],[13.37900259,52.50699206],[13.38469396,52.50732145],[13.39000587,52.5076498],[13.38998351,52.50777548],[13.39063395,52.50781648]]]},"geometry_name":"geom","properties":{"gisid":589,"objekt":"Grenzstreifen"},"bbox":[13.37900259,52.50699206,13.39091831,52.50940317]},{"type":"Feature","id":"d_grenzstreifen.595","geometry":{"type":"Polygon","coordinates":[[[13.37900259,52.50699206],[13.37959921,52.50758326],[13.37880625,52.50778153],[13.37855328,52.50766537],[13.37803449,52.50808443],[13.3778889,52.50824611],[13.37794191,52.50852946],[13.37906772,52.51037314],[13.37948549,52.51144053],[13.37919644,52.51574639],[13.38034834,52.51580535],[13.38011664,52.51697642],[13.37948114,52.5169347],[13.37938534,52.51748392],[13.37822002,52.51744916],[13.37771501,52.51756782],[13.37759634,52.51765792],[13.3778479,52.5176746],[13.37776665,52.51798954],[13.37746216,52.51796466],[13.37747202,52.51856258],[13.37747102,52.51874033],[13.37747374,52.5191237],[13.37759867,52.51916214],[13.3779591,52.51904838],[13.37872281,52.51891107],[13.37904478,52.51886269],[13.37924018,52.51884908],[13.37956855,52.51883925],[13.37964207,52.51893879],[13.3793242,52.51893813],[13.37888689,52.51897761],[13.3786275,52.51901324],[13.3782131,52.51910051],[13.37774692,52.51919862],[13.37709609,52.51945863],[13.37691093,52.51940976],[13.37690644,52.51786653],[13.37733543,52.51695444],[13.37731009,52.51675239],[13.3772262,52.5166821],[13.37700441,52.51658238],[13.37687474,52.51649608],[13.3768184,52.5164192],[13.3768611,52.51603287],[13.37699717,52.51594714],[13.37719823,52.51587478],[13.37734503,52.51580892],[13.37746511,52.51567352],[13.37747081,52.51562391],[13.37737043,52.5151539],[13.37729164,52.51470378],[13.37729809,52.51452183],[13.37695993,52.5129496],[13.37692437,52.51252604],[13.37695282,52.5122912],[13.37692162,52.51205624],[13.37669955,52.51105331],[13.37652284,52.51018281],[13.37593494,52.50843907],[13.37606006,52.50834548],[13.37716921,52.50818324],[13.37792424,52.50783676],[13.37900259,52.50699206]]]},"geometry_name":"geom","properties":{"gisid":595,"objekt":"Grenzstreifen"},"bbox":[13.37593494,52.50699206,13.38034834,52.51945863]},{"type":"Feature","id":"d_grenzstreifen.602","geometry":{"type":"Polygon","coordinates":[[[13.3739842,52.52800032],[13.37405384,52.52804979],[13.37376256,52.52836905],[13.37372264,52.52836896],[13.37356878,52.52851875],[13.37353554,52.52851462],[13.37330131,52.52875755],[13.37324811,52.52875338],[13.3730808,52.52892748],[13.37257374,52.52955085],[13.37281111,52.5296578],[13.36979441,52.53275726],[13.3693123,52.53380121],[13.36854666,52.53448653],[13.36924045,52.53529376],[13.36938253,52.53535918],[13.3692257,52.53549122],[13.36917083,52.53559333],[13.37305147,52.53750548],[13.37328988,52.53743826],[13.37344923,52.53732249],[13.37319607,52.53719616],[13.37338715,52.53708046],[13.37333983,52.53703198],[13.37367434,52.53681015],[13.37431285,52.53667502],[13.37404075,52.53655936],[13.37455118,52.536096],[13.37523222,52.53632],[13.37572623,52.53595336],[13.37591625,52.53602149],[13.37603969,52.53605351],[13.37630832,52.53619638],[13.37601915,52.53642649],[13.3765704,52.53662729],[13.3764059,52.53680781],[13.37820273,52.53740362],[13.37727243,52.53737699],[13.37676493,52.5376966],[13.37678335,52.5379119],[13.37700556,52.53806712],[13.37940443,52.53952753],[13.37948708,52.53921936],[13.37977566,52.53825794],[13.38002171,52.53766643],[13.38005227,52.53746158],[13.38023051,52.5374593],[13.38065197,52.53672064],[13.38064557,52.53665315],[13.3807994,52.53646221],[13.38085764,52.53648413],[13.3812859,52.535856],[13.38151782,52.53583239],[13.38211818,52.53605588],[13.38769778,52.53258527],[13.38767717,52.53316676],[13.38637726,52.53412739],[13.38274829,52.53717585],[13.38018888,52.53955919],[13.37970871,52.54011569],[13.37956022,52.54013353],[13.37641968,52.53825854],[13.37492498,52.53732564],[13.37453178,52.53704259],[13.3730555,52.53799283],[13.36858894,52.53591479],[13.36780329,52.5365756],[13.36687836,52.53613728],[13.36650903,52.53585368],[13.36893395,52.53356436],[13.36889539,52.53336229],[13.37026867,52.5318867],[13.37102967,52.53088647],[13.37137143,52.53045579],[13.37190907,52.52986393],[13.37224187,52.52951975],[13.37283594,52.52898591],[13.37311499,52.52876526],[13.3733756,52.52856296],[13.37361628,52.52835656],[13.37383038,52.52814199],[13.3739842,52.52800032]]]},"geometry_name":"geom","properties":{"gisid":602,"objekt":"Grenzstreifen"},"bbox":[13.36650903,52.52800032,13.38769778,52.54013353]},{"type":"Feature","id":"d_grenzstreifen.610","geometry":{"type":"Polygon","coordinates":[[[13.39865534,52.55371469],[13.39880749,52.55310945],[13.39906629,52.55183484],[13.39907841,52.5510859],[13.39929543,52.55108631],[13.39946973,52.55095436],[13.39890602,52.55084744],[13.39926229,52.54910186],[13.40040458,52.54641851],[13.40055791,52.54614099],[13.40356101,52.54019351],[13.39640763,52.53820766],[13.39588018,52.53808877],[13.39348416,52.53741476],[13.3929921,52.5371388],[13.39023691,52.53539931],[13.38883908,52.53422489],[13.38832107,52.53373436],[13.38801443,52.53328386],[13.38767717,52.53316676],[13.38769778,52.53258527],[13.38958932,52.53343085],[13.38891419,52.53361291],[13.38976984,52.53437033],[13.39058687,52.5351135],[13.3910118,52.53531272],[13.39298924,52.53633685],[13.39311401,52.53661501],[13.39338524,52.5368127],[13.39390335,52.53699013],[13.39402105,52.53726016],[13.39449678,52.53740637],[13.39534376,52.53748056],[13.39682423,52.53793183],[13.39781039,52.53821153],[13.39793484,52.53814299],[13.40110441,52.53900858],[13.40157286,52.53928496],[13.40435543,52.5400744],[13.40480209,52.54099011],[13.40495789,52.54141689],[13.40512071,52.54139378],[13.40466366,52.54196145],[13.40438146,52.54208355],[13.40367034,52.54349246],[13.40355127,52.54416671],[13.40314474,52.54499983],[13.40282438,52.54668539],[13.40201009,52.54661027],[13.40196923,52.54673283],[13.40166765,52.5467016],[13.40165734,52.54675063],[13.40133562,52.54672549],[13.40102974,52.54753427],[13.40056106,52.5487045],[13.40095317,52.5487359],[13.40085066,52.54910973],[13.40308301,52.54923047],[13.40363649,52.54917633],[13.40356363,52.54966058],[13.40302035,52.54968408],[13.40263785,52.54973854],[13.40228549,52.54979919],[13.40201348,52.54988452],[13.4015903,52.55002474],[13.40133827,52.55013463],[13.40085399,52.55042188],[13.40058143,52.55061144],[13.40038719,52.55094199],[13.40045886,52.55097297],[13.40105214,52.55101089],[13.40098015,52.55131733],[13.40035676,52.55126709],[13.40007385,52.5515118],[13.3995041,52.55276154],[13.39924805,52.55364399],[13.39865534,52.55371469]]]},"geometry_name":"geom","properties":{"gisid":610,"objekt":"Grenzstreifen"},"bbox":[13.38767717,52.53258527,13.40512071,52.55371469]},{"type":"Feature","id":"d_grenzstreifen.620","geometry":{"type":"Polygon","coordinates":[[[13.40148546,52.5611755],[13.40058202,52.56074834],[13.40050632,52.56079419],[13.40011937,52.56082795],[13.39818227,52.56144513],[13.39716311,52.56044851],[13.39745248,52.55907323],[13.39760959,52.55808134],[13.39776463,52.55748632],[13.39794296,52.55658708],[13.39809771,52.55604498],[13.39827561,52.55522511],[13.39838034,52.55480854],[13.39844024,52.5545703],[13.39865534,52.55371469],[13.39924805,52.55364399],[13.4027083,52.55368125],[13.40250065,52.55425783],[13.40239136,52.55468009],[13.39909079,52.55487613],[13.39906886,52.55522558],[13.39903706,52.55553823],[13.39898518,52.5558447],[13.3989634,52.5561635],[13.39891021,52.55672137],[13.39896918,52.55699127],[13.3990183,52.55721823],[13.39909496,52.55741363],[13.399176,52.55785008],[13.3993356,52.55811404],[13.39953919,52.55850264],[13.39939289,52.55870891],[13.4006303,52.56005621],[13.40194107,52.56092867],[13.40148546,52.5611755]]]},"geometry_name":"geom","properties":{"gisid":620,"objekt":"Grenzstreifen"},"bbox":[13.39716311,52.55364399,13.4027083,52.56144513]},{"type":"Feature","id":"d_grenzstreifen.626","geometry":{"type":"Polygon","coordinates":[[[13.39716311,52.56044851],[13.39818227,52.56144513],[13.3981051,52.56177268],[13.39757702,52.56173142],[13.39744429,52.56185764],[13.39717131,52.56174213],[13.39650776,52.56235025],[13.39529417,52.56349771],[13.39435561,52.56436399],[13.393901,52.56469655],[13.39377774,52.56481129],[13.39005475,52.56735656],[13.39038447,52.56759704],[13.39070968,52.56827916],[13.3900588,52.56864434],[13.3899164,52.56880503],[13.38873637,52.56954312],[13.38460121,52.57185158],[13.38350267,52.57273963],[13.38248596,52.57309496],[13.38250135,52.57307466],[13.38045431,52.57350135],[13.38009942,52.57358526],[13.37982316,52.57369239],[13.37927908,52.57382246],[13.3772413,52.57527685],[13.3758078,52.57640405],[13.37450464,52.57691327],[13.37337593,52.57741318],[13.37211829,52.57798506],[13.37115914,52.57742313],[13.37233617,52.5769738],[13.37522769,52.57574989],[13.37681472,52.57500547],[13.37883659,52.57356072],[13.37974567,52.57261593],[13.38220694,52.57212644],[13.38309548,52.57243254],[13.38705922,52.57024458],[13.38836581,52.56953284],[13.38922391,52.56837772],[13.38931425,52.56822085],[13.38940969,52.56816308],[13.38924685,52.56720626],[13.39203433,52.56561108],[13.39338462,52.56480677],[13.3935155,52.56468797],[13.39412581,52.56422614],[13.39480193,52.56363215],[13.39534729,52.56313051],[13.39589333,52.56249657],[13.39665879,52.56141326],[13.39716311,52.56044851]]]},"geometry_name":"geom","properties":{"gisid":626,"objekt":"Grenzstreifen"},"bbox":[13.37115914,52.56044851,13.39818227,52.57798506]},{"type":"Feature","id":"d_grenzstreifen.632","geometry":{"type":"Polygon","coordinates":[[[13.37115914,52.57742313],[13.37211829,52.57798506],[13.37132496,52.5783458],[13.36872055,52.57973983],[13.36459697,52.58198544],[13.36390086,52.58212092],[13.36133579,52.58358509],[13.35971621,52.58424165],[13.35873116,52.58479997],[13.35809441,52.58446094],[13.35251134,52.58752336],[13.35234506,52.58774891],[13.35066462,52.58864301],[13.35065488,52.58935927],[13.35039992,52.58962066],[13.35027987,52.59040131],[13.35316638,52.59047813],[13.35373353,52.5906758],[13.35848886,52.5908366],[13.35858819,52.59068104],[13.35994538,52.59075601],[13.3602816,52.59052871],[13.36107251,52.5907621],[13.36071206,52.59118211],[13.35811648,52.59096287],[13.35535559,52.5908185],[13.35413937,52.59085337],[13.35181107,52.59074757],[13.35061664,52.59059417],[13.347714,52.59006019],[13.34916151,52.58929792],[13.350068,52.58935025],[13.34993675,52.58892782],[13.35142469,52.58811537],[13.35230423,52.58768605],[13.35232578,52.58753548],[13.35790895,52.58446052],[13.35885817,52.58424929],[13.35933419,52.58391146],[13.35939678,52.58378608],[13.36357323,52.58147334],[13.36404649,52.58158735],[13.36526722,52.58074908],[13.37115914,52.57742313]]]},"geometry_name":"geom","properties":{"gisid":632,"objekt":"Grenzstreifen"},"bbox":[13.347714,52.57742313,13.37211829,52.59118211]},{"type":"Feature","id":"d_grenzstreifen.638","geometry":{"type":"Polygon","coordinates":[[[13.36071206,52.59118211],[13.36107251,52.5907621],[13.36287516,52.59129403],[13.36287321,52.5916184],[13.36270248,52.59192657],[13.36348028,52.59220521],[13.36349251,52.59233182],[13.36406592,52.59267051],[13.36554591,52.59438546],[13.36779566,52.59622589],[13.368381,52.59662129],[13.36972396,52.59751967],[13.37184438,52.59931227],[13.37206499,52.59936022],[13.37227173,52.59955845],[13.37299314,52.60063597],[13.37397273,52.60201468],[13.37526039,52.60406651],[13.37622592,52.60565878],[13.37663598,52.60648099],[13.37741663,52.60828923],[13.37778619,52.60934764],[13.37897375,52.61140807],[13.37490488,52.61714321],[13.3742287,52.61808248],[13.37370317,52.61882067],[13.37106124,52.62239853],[13.36880947,52.6244508],[13.36880836,52.62464011],[13.36862059,52.62482901],[13.3682961,52.6249167],[13.36797678,52.62524703],[13.36789781,52.62556736],[13.36754059,52.62619228],[13.36661579,52.62703159],[13.36641185,52.62709791],[13.36139272,52.62700157],[13.36045996,52.62692299],[13.35974456,52.62701364],[13.35611096,52.62771957],[13.3555867,52.62779748],[13.3552733,52.62778567],[13.35116353,52.626559],[13.34870739,52.62664552],[13.34825255,52.6266313],[13.34683766,52.62648293],[13.34548916,52.62673021],[13.34107554,52.62771332],[13.34053435,52.62777609],[13.33736479,52.6277684],[13.33711962,52.62761829],[13.33817955,52.62607639],[13.33819807,52.6259269],[13.33582266,52.62520759],[13.33352572,52.62544148],[13.3330409,52.62539295],[13.33248461,52.62461399],[13.33187027,52.62463381],[13.32948166,52.62541878],[13.32935577,52.62563302],[13.32746497,52.6261457],[13.32572103,52.62640632],[13.324538,52.62652951],[13.32360236,52.62686788],[13.32026139,52.62712431],[13.31881004,52.62705745],[13.3178544,52.62728213],[13.31665014,52.62746829],[13.31640768,52.62736804],[13.31753584,52.62717367],[13.31897799,52.62676761],[13.32371349,52.6264284],[13.32557555,52.62596856],[13.32715383,52.62574027],[13.3291979,52.62535153],[13.3317773,52.62432781],[13.33206012,52.62422752],[13.33262378,52.62431982],[13.33295415,52.62455293],[13.33303605,52.62471473],[13.33310142,52.62486639],[13.3331334,52.62504826],[13.33316605,52.62512914],[13.33328155,52.62523042],[13.33341398,52.62528125],[13.33353967,52.62529837],[13.3338105,52.62528806],[13.33550643,52.62509452],[13.33606898,52.62511208],[13.33808091,52.62555484],[13.33834045,52.62570743],[13.33842671,52.62585271],[13.33847057,52.62611173],[13.33761919,52.62740773],[13.33873767,52.62763763],[13.34041213,52.62767968],[13.34102355,52.6276171],[13.34263721,52.62725786],[13.34676181,52.62625449],[13.34703795,52.62625697],[13.34734074,52.62633676],[13.34875979,52.62638822],[13.35106646,52.62632693],[13.35137375,52.62635318],[13.35507086,52.62731725],[13.35536582,52.62730596],[13.36022625,52.62653943],[13.36563146,52.62669501],[13.36596629,52.62658809],[13.36671223,52.62596979],[13.36727281,52.62547998],[13.36777792,52.62469063],[13.36806384,52.62425999],[13.36832143,52.62391363],[13.36877657,52.62340024],[13.36985796,52.62216968],[13.37099363,52.62074936],[13.37206366,52.6192683],[13.37452187,52.61562498],[13.37585178,52.61333099],[13.37648906,52.61101334],[13.37633885,52.60784056],[13.37411842,52.60456499],[13.3730042,52.60277392],[13.37107881,52.59999459],[13.36975707,52.5987332],[13.36409584,52.59401383],[13.36071206,52.59118211]]]},"geometry_name":"geom","properties":{"gisid":638,"objekt":"Grenzstreifen"},"bbox":[13.31640768,52.5907621,13.37897375,52.62779748]},{"type":"Feature","id":"d_grenzstreifen.646","geometry":{"type":"Polygon","coordinates":[[[13.31640768,52.62736804],[13.31665014,52.62746829],[13.31625393,52.62777015],[13.31428213,52.62832668],[13.3138904,52.62840644],[13.31363169,52.62840622],[13.31316381,52.62837641],[13.31262059,52.62840434],[13.31238611,52.62840659],[13.31205421,52.62841202],[13.31167979,52.62856248],[13.31149249,52.62865032],[13.31094096,52.62891389],[13.31060319,52.63004003],[13.31026951,52.62998484],[13.31008405,52.62972565],[13.30988608,52.62955848],[13.30964646,52.62941139],[13.30929066,52.62926399],[13.309092,52.62919276],[13.30877729,52.62910102],[13.30838805,52.62898888],[13.30795701,52.62891702],[13.30750699,52.628852],[13.30711667,52.62876552],[13.3065065,52.62866567],[13.30604243,52.62857352],[13.30530604,52.62826853],[13.30445293,52.62803897],[13.30313551,52.62775259],[13.30259362,52.62752386],[13.30264535,52.62726141],[13.30275731,52.62727182],[13.30299782,52.62729268],[13.30365282,52.62737526],[13.30390156,52.62740624],[13.30537728,52.62760719],[13.30695268,52.6277983],[13.30812417,52.62793097],[13.30868845,52.62801002],[13.30989137,52.62804805],[13.31109355,52.62816734],[13.31191658,52.62821558],[13.31238743,52.62824369],[13.31287509,52.62823988],[13.3131451,52.62817844],[13.31357721,52.62809879],[13.31404281,52.62797882],[13.31482448,52.62775869],[13.31640768,52.62736804]],[[13.31057781,52.62915634],[13.31089117,52.62828355],[13.31062579,52.62825759],[13.31046887,52.62815113],[13.30987266,52.62811472],[13.30862727,52.6280452],[13.30771513,52.62794175],[13.30604598,52.62775933],[13.30428737,52.62751226],[13.30354468,52.62741031],[13.30339311,52.62770784],[13.30347557,52.62777876],[13.30382353,52.62786051],[13.3048924,52.62809066],[13.30547202,52.62826898],[13.30643229,52.62859982],[13.30839582,52.62894379],[13.30893505,52.62909134],[13.30931582,52.62922871],[13.30976276,52.62939655],[13.31013549,52.62949854],[13.31043385,52.62955489],[13.31052758,52.6292168],[13.31057781,52.62915634]]]},"geometry_name":"geom","properties":{"gisid":646,"objekt":"Grenzstreifen"},"bbox":[13.30259362,52.62726141,13.31665014,52.63004003]},{"type":"Feature","id":"d_grenzstreifen.654","geometry":{"type":"Polygon","coordinates":[[[13.30722662,52.63752357],[13.30617603,52.63666905],[13.3064113,52.63629771],[13.30932579,52.63284719],[13.3096616,52.6323054],[13.30989483,52.63160559],[13.31012823,52.63088053],[13.31021283,52.63065358],[13.31026195,52.6303151],[13.31026951,52.62998484],[13.31060319,52.63004003],[13.31052862,52.63028864],[13.31049819,52.63034796],[13.31046971,52.63040335],[13.31002968,52.63243384],[13.3097335,52.63293468],[13.30774357,52.63506416],[13.30685414,52.63613451],[13.30748428,52.63738379],[13.30739964,52.63818641],[13.30780579,52.63921804],[13.30829318,52.63991436],[13.3087057,52.64007125],[13.30906951,52.64076774],[13.30834651,52.64081147],[13.30831044,52.64024993],[13.30792761,52.63988799],[13.30745105,52.63957925],[13.30702946,52.63902794],[13.3070895,52.63808956],[13.30722662,52.63752357]]]},"geometry_name":"geom","properties":{"gisid":654,"objekt":"Grenzstreifen"},"bbox":[13.30617603,52.62998484,13.31060319,52.64081147]},{"type":"Feature","id":"d_grenzstreifen.659","geometry":{"type":"Polygon","coordinates":[[[13.30834651,52.64081147],[13.30906951,52.64076774],[13.3101621,52.6428593],[13.31045233,52.64321591],[13.31047634,52.64417527],[13.31035112,52.64433799],[13.30663549,52.64794044],[13.30350269,52.65145507],[13.30197293,52.6532072],[13.30075122,52.65342874],[13.3021207,52.6517496],[13.30276549,52.65090991],[13.30340965,52.65015113],[13.30633504,52.64669619],[13.30681627,52.64637386],[13.30829488,52.64425804],[13.30916644,52.64405185],[13.30941239,52.64271588],[13.30885586,52.64126278],[13.30834651,52.64081147]]]},"geometry_name":"geom","properties":{"gisid":659,"objekt":"Grenzstreifen"},"bbox":[13.30075122,52.64076774,13.31047634,52.65342874]},{"type":"Feature","id":"d_grenzstreifen.661","geometry":{"type":"Polygon","coordinates":[[[13.30075122,52.65342874],[13.30197293,52.6532072],[13.30585394,52.65481826],[13.30782652,52.65563145],[13.30953541,52.65631382],[13.31137802,52.65713954],[13.30923799,52.65894666],[13.30799473,52.66001755],[13.30707624,52.65967597],[13.30778871,52.65898202],[13.30925962,52.65798271],[13.31034631,52.65728775],[13.30725052,52.65614878],[13.30581785,52.65556237],[13.3044116,52.65500837],[13.30075122,52.65342874]]]},"geometry_name":"geom","properties":{"gisid":661,"objekt":"Grenzstreifen"},"bbox":[13.30075122,52.6532072,13.31137802,52.66001755]},{"type":"Feature","id":"d_grenzstreifen.670","geometry":{"type":"Polygon","coordinates":[[[13.07689698,52.42051136],[13.07764385,52.42034706],[13.07759514,52.41971649],[13.07747067,52.41900327],[13.07739414,52.41681986],[13.08024667,52.41626815],[13.08049474,52.41612754],[13.08097507,52.41595256],[13.08125026,52.41596269],[13.08351579,52.41536107],[13.0865156,52.41433008],[13.08747693,52.41391805],[13.08814696,52.41362873],[13.08869795,52.4135958],[13.08843283,52.41326924],[13.08822054,52.41300776],[13.08812846,52.41276924],[13.08799957,52.41264462],[13.08782766,52.41248436],[13.08775651,52.41237772],[13.08771467,52.41224463],[13.08764504,52.41201395],[13.08760482,52.41174798],[13.0877685,52.41139433],[13.08801857,52.41108537],[13.08827123,52.4105638],[13.08753712,52.41017062],[13.08774329,52.4098969],[13.08788689,52.40994833],[13.08802107,52.41003162],[13.08819982,52.41015645],[13.08842296,52.41033661],[13.08851074,52.41052992],[13.08846366,52.41069506],[13.08837135,52.41087378],[13.08821111,52.41107974],[13.08800732,52.41132929],[13.08789684,52.41156325],[13.08782203,52.41175783],[13.08782008,52.41191729],[13.08783327,52.41202367],[13.08787544,52.41213018],[13.08795967,52.41235206],[13.0880306,52.41247642],[13.08823117,52.41266339],[13.0883461,52.41274366],[13.08844676,52.41280613],[13.08864863,52.41288679],[13.08882184,52.41294074],[13.08899484,52.4130124],[13.08913235,52.41315089],[13.08924351,52.41327541],[13.08924507,52.41335665],[13.08924926,52.41357475],[13.08917038,52.41372981],[13.0891016,52.41382595],[13.08902759,52.41388146],[13.08891982,52.41394914],[13.08863189,52.41404601],[13.08833108,52.41418072],[13.08805983,52.41424838],[13.08763118,52.41428777],[13.08719815,52.41426565],[13.08524915,52.41490995],[13.08482628,52.41503262],[13.08457012,52.41512657],[13.08380801,52.41545421],[13.08334518,52.41566304],[13.08297956,52.41574858],[13.08242314,52.41588171],[13.0818177,52.41601539],[13.0808181,52.41621353],[13.08058069,52.41620767],[13.0803091,52.41635656],[13.0787917,52.41674871],[13.07852792,52.4169867],[13.07783734,52.4177543],[13.07768619,52.41823434],[13.07768137,52.418622],[13.07776468,52.4195722],[13.07787766,52.4206873],[13.0778726,52.42109434],[13.07689698,52.42051136]]]},"geometry_name":"geom","properties":{"gisid":670,"objekt":"Grenzstreifen"},"bbox":[13.07689698,52.4098969,13.08924926,52.42109434]},{"type":"Feature","id":"d_grenzstreifen.674","geometry":{"type":"Polygon","coordinates":[[[13.09717693,52.40870107],[13.09716963,52.4084413],[13.09778383,52.40845644],[13.09963979,52.40835739],[13.10083746,52.40817483],[13.1008843,52.40832953],[13.09970356,52.40852487],[13.09777717,52.40866102],[13.09717693,52.40870107]]]},"geometry_name":"geom","properties":{"gisid":674,"objekt":"Grenzstreifen"},"bbox":[13.09716963,52.40817483,13.1008843,52.40870107]},{"type":"Feature","id":"d_grenzstreifen.680","geometry":{"type":"Polygon","coordinates":[[[13.45062819,52.49685457],[13.45038126,52.49668644],[13.45001199,52.49644054],[13.44970178,52.496209],[13.45069354,52.49568085],[13.45083061,52.4955976],[13.45120096,52.49580084],[13.45102482,52.49588403],[13.45166396,52.49630133],[13.45151688,52.49635251],[13.4514257,52.49638809],[13.45134013,52.49642148],[13.45128404,52.49644752],[13.45119835,52.49645658],[13.45106141,52.49650407],[13.4509635,52.49656354],[13.45086559,52.49662301],[13.45082633,52.49667064],[13.45072808,52.49681357],[13.45062819,52.49685457]]]},"geometry_name":"geom","properties":{"gisid":680,"objekt":"Grenzstreifen"},"bbox":[13.44970178,52.4955976,13.45166396,52.49685457]},{"type":"Feature","id":"d_grenzstreifen.688","geometry":{"type":"Polygon","coordinates":[[[13.45120605,52.49718938],[13.45120608,52.49718942],[13.45103946,52.4971121],[13.45088351,52.49702841],[13.45062819,52.49685457],[13.45072808,52.49681357],[13.45120605,52.49718938]]]},"geometry_name":"geom","properties":{"gisid":688,"objekt":"Grenzstreifen"},"bbox":[13.45062819,52.49681357,13.45120608,52.49718942]},{"type":"Feature","id":"d_grenzstreifen.996","geometry":{"type":"Polygon","coordinates":[[[13.14037596,52.53331566],[13.14123158,52.53500757],[13.1412452,52.53765636],[13.14181137,52.53761754],[13.14181997,52.53713339],[13.14184421,52.53693767],[13.14187957,52.53503297],[13.14190699,52.53468929],[13.1417552,52.53351412],[13.14156141,52.53270196],[13.14133963,52.53212923],[13.1409546,52.53142446],[13.14252039,52.53076633],[13.14495218,52.52970216],[13.14403645,52.52770479],[13.14337598,52.52431923],[13.14284032,52.52466221],[13.14341229,52.52694253],[13.14358961,52.52778985],[13.14414418,52.52893459],[13.14418126,52.52958497],[13.14092181,52.53098322],[13.1408185,52.5310282],[13.14075689,52.53106034],[13.14044087,52.53122521],[13.14030904,52.53136398],[13.14016759,52.5316025],[13.14007893,52.53175202],[13.14037596,52.53331566]]]},"geometry_name":"geom","properties":{"gisid":996,"objekt":"Grenzstreifen"},"bbox":[13.14007893,52.52431923,13.14495218,52.53765636]},{"type":"Feature","id":"d_grenzstreifen.997","geometry":{"type":"Polygon","coordinates":[[[13.2032039,52.59849222],[13.2039299,52.59775658],[13.20430186,52.59762231],[13.204885,52.59745343],[13.20550715,52.59723103],[13.20580721,52.59712378],[13.20598825,52.59703001],[13.20623852,52.59686457],[13.2063874,52.59676614],[13.20667656,52.59662748],[13.20971139,52.59559817],[13.21344435,52.59264645],[13.21307946,52.59114817],[13.21340802,52.58915489],[13.21353984,52.58831295],[13.21374696,52.58797885],[13.2112732,52.58827765],[13.2071798,52.5884574],[13.20668938,52.58695075],[13.20653214,52.58672364],[13.20568875,52.58685159],[13.20438311,52.58738794],[13.20400964,52.58756272],[13.20289227,52.58784759],[13.20245669,52.58803474],[13.20210384,52.58825759],[13.2018551,52.58838432],[13.20159431,52.58851717],[13.20144215,52.58859063],[13.20114976,52.5886963],[13.20075606,52.58883861],[13.20050465,52.58888775],[13.20007364,52.58898178],[13.19943229,52.58912174],[13.19837896,52.58923938],[13.19649576,52.58967286],[13.19385007,52.5900024],[13.19140363,52.5905203],[13.19084347,52.59077785],[13.18479442,52.59340145],[13.18148179,52.59435726],[13.17821344,52.5950112],[13.17665615,52.59515918],[13.17570099,52.59534554],[13.17408369,52.59566111],[13.17188594,52.59637264],[13.17102565,52.59664903],[13.16899572,52.59720446],[13.16739381,52.59740684],[13.16477195,52.59883401],[13.16551493,52.59944334],[13.16705545,52.59855429],[13.16834801,52.59794396],[13.1739381,52.59632456],[13.17556388,52.59605107],[13.17709796,52.59575855],[13.18034884,52.59526739],[13.18197491,52.59495652],[13.18433902,52.59433138],[13.18658283,52.593482],[13.18957624,52.59218679],[13.19262222,52.59100385],[13.19367764,52.59073096],[13.1945885,52.5905335],[13.19591194,52.59031186],[13.19977991,52.58953379],[13.20146122,52.58912577],[13.20257369,52.58875173],[13.2052044,52.58781809],[13.20615694,52.58757037],[13.20640434,52.58753349],[13.20666983,52.58763449],[13.20694239,52.58850934],[13.20695453,52.58872596],[13.21004845,52.58853923],[13.21275485,52.58832278],[13.21300211,52.58838655],[13.2129346,52.58897711],[13.21279402,52.59119311],[13.21304719,52.59255183],[13.20974608,52.59516942],[13.20673302,52.59644539],[13.20595406,52.59672765],[13.2036868,52.59767921],[13.20272636,52.59844301],[13.20176325,52.59910355],[13.20123609,52.60044344],[13.20177681,52.60041275],[13.20192127,52.59921581],[13.20235238,52.59894912],[13.20276171,52.59869092],[13.2032039,52.59849222]]]},"geometry_name":"geom","properties":{"gisid":997,"objekt":"Grenzstreifen"},"bbox":[13.16477195,52.58672364,13.21374696,52.60044344]},{"type":"Feature","id":"d_grenzstreifen.1296","geometry":{"type":"Polygon","coordinates":[[[13.42937988,52.50954601],[13.4297017,52.50943523],[13.4315127,52.50863074],[13.43194796,52.5084655],[13.43358087,52.50779896],[13.43449798,52.50732057],[13.43570275,52.50667654],[13.43932941,52.50483201],[13.4428848,52.50359175],[13.44320286,52.50347688],[13.44508856,52.50277381],[13.44533903,52.50267065],[13.44617554,52.50233512],[13.44641353,52.50261312],[13.4458209,52.50280002],[13.44422844,52.50334781],[13.43994295,52.50489355],[13.43898386,52.50531069],[13.43752821,52.50617488],[13.43535081,52.50788492],[13.43458305,52.50831206],[13.43447072,52.50845792],[13.43221726,52.50927207],[13.43157787,52.50952415],[13.43041112,52.50995061],[13.429404,52.51035785],[13.42879809,52.50987869],[13.42937988,52.50954601]]]},"geometry_name":"geom","properties":{"gisid":1296,"objekt":"Grenzstreifen"},"bbox":[13.42879809,52.50233512,13.44641353,52.51035785]},{"type":"Feature","id":"d_grenzstreifen.1300","geometry":{"type":"Polygon","coordinates":[[[13.09889036,52.42615828],[13.09999102,52.42609907],[13.1006747,52.42593735],[13.1021059,52.42557541],[13.10260498,52.42552902],[13.10371931,52.42572507],[13.10487181,52.42613165],[13.1054901,52.42630758],[13.10583729,52.4264448],[13.10621378,52.42678567],[13.10665302,52.42718498],[13.10698254,52.42747718],[13.10731321,52.42775923],[13.10765077,52.42801348],[13.10786721,52.42825291],[13.10760108,52.42802854],[13.1071589,52.4276816],[13.10678211,52.42735501],[13.1063601,52.42696803],[13.10600947,52.42664957],[13.10582772,52.42648028],[13.10556004,52.42636277],[13.10482769,52.4261389],[13.1040107,52.42585849],[13.10367742,52.42574068],[13.10259031,52.42555133],[13.10222902,52.42558182],[13.10198561,52.42563289],[13.10121542,52.42583406],[13.1008138,52.4259446],[13.10037941,52.42605098],[13.10004384,52.42612571],[13.09916266,52.42627823],[13.0989622,52.42630121],[13.09889036,52.42615828]]]},"geometry_name":"geom","properties":{"gisid":1300,"objekt":"Grenzstreifen"},"bbox":[13.09889036,52.42552902,13.10786721,52.42825291]},{"type":"Feature","id":"d_grenzstreifen.1302","geometry":{"type":"Polygon","coordinates":[[[13.38018184,52.51893515],[13.38010564,52.51893976],[13.37964207,52.51893879],[13.37956855,52.51883925],[13.37989137,52.51884035],[13.38024566,52.51882314],[13.38023928,52.51893527],[13.38018184,52.51893515]]]},"geometry_name":"geom","properties":{"gisid":1302,"objekt":"Grenzstreifen"},"bbox":[13.37956855,52.51882314,13.38024566,52.51893976]},{"type":"Feature","id":"d_grenzstreifen.1306","geometry":{"type":"Polygon","coordinates":[[[13.37417645,52.52777326],[13.37433529,52.52740315],[13.37439582,52.5271833],[13.37433789,52.5269507],[13.37427272,52.52676473],[13.37414136,52.52657054],[13.37387799,52.52629527],[13.37344233,52.52603579],[13.37346269,52.52362442],[13.37361745,52.52322444],[13.37414804,52.5230963],[13.37445321,52.52300807],[13.37485152,52.52284733],[13.37509054,52.5227428],[13.37543595,52.52256578],[13.37572824,52.52241289],[13.3761006,52.52215513],[13.37623374,52.52203422],[13.3763937,52.5218568],[13.37666133,52.52138067],[13.37687825,52.52050044],[13.37691854,52.52040357],[13.37705209,52.52020994],[13.3773048,52.52002464],[13.37759716,52.51985559],[13.37800858,52.51971102],[13.37828718,52.51963081],[13.37868499,52.51955084],[13.37918866,52.51948726],[13.38002301,52.51950516],[13.37999365,52.51969304],[13.37978932,52.51969261],[13.37980501,52.51961265],[13.37958282,52.5196148],[13.37947326,52.51962411],[13.37928544,52.5196428],[13.37908197,52.51966146],[13.37881582,52.51969908],[13.37859665,52.51972724],[13.37842441,52.51975551],[13.37812341,52.51979165],[13.3779292,52.51985883],[13.37810385,52.5201313],[13.37796477,52.52016359],[13.37795509,52.52064041],[13.37739523,52.5219386],[13.3782084,52.52199756],[13.37765907,52.52231131],[13.37697118,52.52292059],[13.37675868,52.52314916],[13.37650696,52.52339674],[13.37609786,52.5238062],[13.37586979,52.52402042],[13.37565769,52.52417743],[13.37548486,52.52430589],[13.37523744,52.52445588],[13.3750688,52.52456265],[13.3747943,52.52468612],[13.37452771,52.52479529],[13.37404949,52.52497558],[13.37403957,52.52602863],[13.37427725,52.5261832],[13.37440167,52.52631229],[13.37454139,52.52650344],[13.37464208,52.52668019],[13.37470371,52.52684732],[13.37472644,52.52697619],[13.37471441,52.52717163],[13.37457001,52.52773105],[13.37452858,52.52792163],[13.37417645,52.52777326]]]},"geometry_name":"geom","properties":{"gisid":1306,"objekt":"Grenzstreifen"},"bbox":[13.37344233,52.51948726,13.38002301,52.52792163]}]}
