{"type":"FeatureCollection","features":[{"type":"Feature","id":"c_politischegrenze.12","geometry":{"type":"LineString","coordinates":[[13.36682296,52.62587304],[13.36675489,52.62563313],[13.36690961,52.62534636],[13.36683353,52.62527377],[13.36662074,52.62531728],[13.36647628,52.6253092],[13.36633147,52.62535803],[13.36624612,52.62541474],[13.36622458,52.62546384],[13.36614387,52.6254559],[13.36607198,52.62539367],[13.36599125,52.62538832],[13.36593135,52.62545544],[13.36588481,52.62541912],[13.36586,52.62530267],[13.36574111,52.62528172],[13.36562605,52.62533061],[13.36547576,52.62545976],[13.36529797,52.62546439],[13.36521743,52.625428],[13.36514161,52.62531143],[13.36504842,52.62524708],[13.36490821,52.62524884],[13.36472989,52.62525151],[13.36461931,52.62522751],[13.36465379,52.6251474],[13.36482498,52.62495121],[13.364817,52.62486325],[13.36475349,52.62482172],[13.3644132,52.62486494],[13.36423475,52.6248542],[13.36419277,52.62476616],[13.36408286,52.62466504],[13.36394679,52.62467509],[13.36391248,52.62472674],[13.36392489,52.62478367],[13.36400487,52.62491318],[13.36391966,52.62494661],[13.36378808,52.62491528],[13.36372002,52.62492548],[13.3636857,52.62497713],[13.36371487,52.62507549],[13.36350736,52.62494829],[13.36333339,52.62489875],[13.36321069,52.62489344],[13.36309669,52.62485661],[13.36285339,52.62484854],[13.36258583,52.62481173],[13.36249264,52.6247598],[13.36249446,52.62469446],[13.36250618,52.62462791],[13.36244272,52.62457863],[13.36228116,52.62458603],[13.36216637,52.62459094],[13.36215996,52.62452499],[13.36213312,52.62446671],[13.36209519,52.62441231],[13.36201897,52.62436558],[13.3619344,52.62429297],[13.36183676,52.62427206],[13.36178151,52.62427194],[13.36172615,52.62428992],[13.36160279,52.62430516],[13.36145819,52.62432036],[13.36128393,52.62431997],[13.36113527,52.62430153],[13.36100795,52.6242702],[13.36092329,52.62421311],[13.36093632,52.62416658],[13.36092839,52.62407345],[13.36089885,52.62403717],[13.36082243,52.62402407],[13.3606268,52.62404173],[13.36049073,52.62405177],[13.36043576,52.62400509],[13.36058962,52.62386576],[13.3605558,52.62383465],[13.36049211,52.62382416],[13.36032627,52.62383672],[13.360169,52.62383895],[13.36002869,52.6238464],[13.35996001,52.62395746],[13.35993871,52.6240157],[13.35982952,52.6240492],[13.35967611,52.62406659],[13.3596256,52.62402529],[13.35964113,52.62397485],[13.35963729,52.62390759],[13.35955703,52.62382464],[13.35949781,52.62377795],[13.35937084,52.62368972],[13.35927342,52.62363518],[13.35920151,52.62357812],[13.35921051,52.62349537],[13.3592068,52.62340742],[13.35920306,52.62332464]]},"geometry_name":"geom","properties":{"gisid":12,"objekt":"Politische Grenze"},"bbox":[13.35920151,52.62332464,13.36690961,52.62587304]},{"type":"Feature","id":"c_politischegrenze.37","geometry":{"type":"LineString","coordinates":[[13.39000587,52.5076498],[13.39065638,52.50767757]]},"geometry_name":"geom","properties":{"gisid":37,"objekt":"Politische Grenze"},"bbox":[13.39000587,52.5076498,13.39065638,52.50767757]},{"type":"Feature","id":"c_politischegrenze.45","geometry":{"type":"LineString","coordinates":[[13.41156657,52.50497804],[13.41185999,52.50484623]]},"geometry_name":"geom","properties":{"gisid":45,"objekt":"Politische Grenze"},"bbox":[13.41156657,52.50484623,13.41185999,52.50497804]},{"type":"Feature","id":"c_politischegrenze.69","geometry":{"type":"LineString","coordinates":[[13.47719097,52.46193311],[13.47744355,52.46221993]]},"geometry_name":"geom","properties":{"gisid":69,"objekt":"Politische Grenze"},"bbox":[13.47719097,52.46193311,13.47744355,52.46221993]},{"type":"Feature","id":"c_politischegrenze.75","geometry":{"type":"LineString","coordinates":[[13.51355704,52.4011354],[13.51409069,52.4012864]]},"geometry_name":"geom","properties":{"gisid":75,"objekt":"Politische Grenze"},"bbox":[13.51355704,52.4011354,13.51409069,52.4012864]},{"type":"Feature","id":"c_politischegrenze.78","geometry":{"type":"LineString","coordinates":[[13.41769155,52.37621848],[13.41798291,52.3762071]]},"geometry_name":"geom","properties":{"gisid":78,"objekt":"Politische Grenze"},"bbox":[13.41769155,52.3762071,13.41798291,52.37621848]},{"type":"Feature","id":"c_politischegrenze.112","geometry":{"type":"LineString","coordinates":[[13.13730338,52.39615459],[13.13861885,52.39598037]]},"geometry_name":"geom","properties":{"gisid":112,"objekt":"Politische Grenze"},"bbox":[13.13730338,52.39598037,13.13861885,52.39615459]},{"type":"Feature","id":"c_politischegrenze.136","geometry":{"type":"LineString","coordinates":[[13.14337598,52.52431923],[13.14334956,52.52415908],[13.14325828,52.52397661]]},"geometry_name":"geom","properties":{"gisid":136,"objekt":"Politische Grenze"},"bbox":[13.14325828,52.52397661,13.14337598,52.52431923]},{"type":"Feature","id":"c_politischegrenze.265","geometry":{"type":"LineString","coordinates":[[13.37453178,52.53704259],[13.37492498,52.53732564]]},"geometry_name":"geom","properties":{"gisid":265,"objekt":"Politische Grenze"},"bbox":[13.37453178,52.53704259,13.37492498,52.53732564]},{"type":"Feature","id":"c_politischegrenze.284","geometry":{"type":"LineString","coordinates":[[13.47508756,52.45916572],[13.47503907,52.45870454]]},"geometry_name":"geom","properties":{"gisid":284,"objekt":"Politische Grenze"},"bbox":[13.47503907,52.45870454,13.47508756,52.45916572]},{"type":"Feature","id":"c_politischegrenze.315","geometry":{"type":"LineString","coordinates":[[13.24118082,52.62823355],[13.24158677,52.62830278],[13.24168452,52.62831765]]},"geometry_name":"geom","properties":{"gisid":315,"objekt":"Politische Grenze"},"bbox":[13.24118082,52.62823355,13.24168452,52.62831765]},{"type":"Feature","id":"c_politischegrenze.1337","geometry":{"type":"LineString","coordinates":[[13.42780299,52.50660773],[13.42716721,52.50572],[13.42668885,52.50584068],[13.42664611,52.50585146]]},"geometry_name":"geom","properties":{"gisid":1337,"objekt":"Politische Grenze"},"bbox":[13.42664611,52.50572,13.42780299,52.50660773]},{"type":"Feature","id":"c_politischegrenze.1339","geometry":{"type":"LineString","coordinates":[[13.45339214,52.49752887],[13.45275461,52.49801158],[13.4527537,52.49824333],[13.45224082,52.49851463],[13.4521748,52.49850949],[13.45172789,52.498796],[13.45168636,52.49886143],[13.45145485,52.49895177],[13.45112463,52.49895632],[13.4507865,52.49887521],[13.45058073,52.49872377],[13.45028307,52.49884423],[13.45036499,52.49900054],[13.45033966,52.49914156],[13.44968603,52.49950836],[13.44888674,52.49970973],[13.44660463,52.50050578],[13.44451842,52.5014677],[13.44119699,52.50307268],[13.43854269,52.50401866],[13.43714131,52.50459782],[13.43617831,52.50521458],[13.43616285,52.505293],[13.43594296,52.50543107],[13.43590513,52.50543562],[13.43551846,52.50567032],[13.43445026,52.5061254],[13.43400284,52.50641537],[13.43204748,52.50740423],[13.43055484,52.50805699],[13.42933482,52.50861329]]},"geometry_name":"geom","properties":{"gisid":1339,"objekt":"Politische Grenze"},"bbox":[13.42933482,52.49752887,13.45339214,52.50861329]},{"type":"Feature","id":"c_politischegrenze.1340","geometry":{"type":"LineString","coordinates":[[13.52180921,52.40730452],[13.5206212,52.40639748],[13.5207227,52.40631239],[13.51904162,52.40513387],[13.51928265,52.4049405],[13.51873884,52.40469222],[13.51670377,52.40335847],[13.51700889,52.40284768],[13.51601038,52.40218856],[13.51603976,52.40177466]]},"geometry_name":"geom","properties":{"gisid":1340,"objekt":"Politische Grenze"},"bbox":[13.51601038,52.40177466,13.52180921,52.40730452]},{"type":"Feature","id":"c_politischegrenze.1341","geometry":{"type":"LineString","coordinates":[[13.41259352,52.37639912],[13.41283413,52.37688474],[13.40987908,52.37656528]]},"geometry_name":"geom","properties":{"gisid":1341,"objekt":"Politische Grenze"},"bbox":[13.40987908,52.37639912,13.41283413,52.37688474]},{"type":"Feature","id":"c_politischegrenze.1342","geometry":{"type":"LineString","coordinates":[[13.34190357,52.41119755],[13.34330786,52.41172524],[13.34324648,52.41131816]]},"geometry_name":"geom","properties":{"gisid":1342,"objekt":"Politische Grenze"},"bbox":[13.34190357,52.41119755,13.34330786,52.41172524]},{"type":"Feature","id":"c_politischegrenze.1343","geometry":{"type":"LineString","coordinates":[[13.24974849,52.40495864],[13.25019783,52.40514364],[13.25053679,52.4052768],[13.25104387,52.40545814],[13.2513707,52.40556978],[13.25167511,52.40566062],[13.25220521,52.40579364],[13.25269022,52.40591269],[13.25313032,52.40599703],[13.25362682,52.40609538],[13.25434937,52.40619443],[13.25484628,52.40624439],[13.25549012,52.4062948],[13.25611136,52.40634514],[13.256538,52.40637235],[13.25722017,52.40639376],[13.25783922,52.40641316],[13.25823586,52.40640017],[13.25880897,52.40636722],[13.25942356,52.40629326],[13.25980842,52.40622533],[13.26039959,52.40612032],[13.26085289,52.40600572],[13.26107677,52.40593201],[13.26137127,52.40585688],[13.26185876,52.40567866],[13.26211963,52.40556886],[13.26253924,52.40539734],[13.26310601,52.40519861],[13.26343491,52.40506137],[13.26400162,52.40486955],[13.2645113,52.40473978],[13.26496418,52.40464438],[13.26554166,52.40451481],[13.26620945,52.40439933],[13.26661684,52.40433836],[13.26704671,52.40429128],[13.26725015,52.4042919],[13.26783803,52.40427295],[13.2683581,52.40425378],[13.26899113,52.40424188],[13.26938681,52.40422925],[13.27007652,52.40419677],[13.27065287,52.40420542],[13.27100313,52.4042203],[13.27142103,52.40425612],[13.27198575,52.4043062],[13.27284305,52.40451615],[13.27391527,52.404706],[13.27467093,52.40490872],[13.27513333,52.40503452],[13.2758214,52.40520939],[13.28020194,52.40727537],[13.28041578,52.40739352],[13.28279751,52.40867729],[13.28881046,52.41206144],[13.29015028,52.41281828],[13.29039206,52.41299896],[13.29339592,52.41463853],[13.29456861,52.4152242],[13.29554158,52.41576027],[13.29597211,52.41591638],[13.29676646,52.41626454],[13.29697333,52.41598339],[13.29709009,52.41577243],[13.29707986,52.41542807],[13.29697993,52.41509912],[13.29675196,52.41477764],[13.29649694,52.41465171],[13.29588376,52.41450131]]},"geometry_name":"geom","properties":{"gisid":1343,"objekt":"Politische Grenze"},"bbox":[13.24974849,52.40419677,13.29709009,52.41626454]},{"type":"Feature","id":"c_politischegrenze.1345","geometry":{"type":"LineString","coordinates":[[13.22535997,52.42080171],[13.22505645,52.42107485],[13.22369133,52.4206797],[13.22353858,52.42075356],[13.22132427,52.42009514],[13.21883561,52.41951012],[13.21792542,52.41926523],[13.21713553,52.41916952],[13.21616626,52.41873846],[13.21498412,52.41830664],[13.21404478,52.41793146],[13.2131642,52.41777962]]},"geometry_name":"geom","properties":{"gisid":1345,"objekt":"Politische Grenze"},"bbox":[13.2131642,52.41777962,13.22535997,52.42107485]},{"type":"Feature","id":"c_politischegrenze.1346","geometry":{"type":"LineString","coordinates":[[13.1714113,52.39785836],[13.17089624,52.3977362],[13.17027819,52.39760621],[13.16977307,52.39750001],[13.16949387,52.39742633],[13.16897531,52.39734802],[13.16816886,52.39722623],[13.16756862,52.39718046],[13.16666354,52.39709427],[13.16606079,52.39703688],[13.16571786,52.39701686],[13.16511455,52.39696166],[13.16421626,52.39687946],[13.1628164,52.39673111],[13.16190612,52.39664299],[13.16028529,52.39651546],[13.15782981,52.39633447],[13.15789929,52.39722816],[13.15855805,52.39838981],[13.15933578,52.39950363],[13.15929083,52.40282359],[13.16800514,52.40574323],[13.16985446,52.40635406],[13.18089467,52.40993514],[13.19180566,52.4136265],[13.19743172,52.41552925],[13.19909055,52.41548275],[13.19953117,52.41542528],[13.20029073,52.41550241],[13.20190127,52.41563838],[13.2046968,52.41589013],[13.20712566,52.41632647],[13.21022205,52.41693248],[13.2131642,52.41777962]]},"geometry_name":"geom","properties":{"gisid":1346,"objekt":"Politische Grenze"},"bbox":[13.15782981,52.39633447,13.2131642,52.41777962]},{"type":"Feature","id":"c_politischegrenze.1347","geometry":{"type":"LineString","coordinates":[[13.14031518,52.39622955],[13.14178393,52.39708115],[13.142004,52.39698159],[13.14326015,52.39725464],[13.14322596,52.3966266],[13.14357111,52.39635173]]},"geometry_name":"geom","properties":{"gisid":1347,"objekt":"Politische Grenze"},"bbox":[13.14031518,52.39622955,13.14357111,52.39725464]},{"type":"Feature","id":"c_politischegrenze.1348","geometry":{"type":"LineString","coordinates":[[13.13043166,52.39032806],[13.13288518,52.38873928],[13.13336539,52.38862408],[13.13376108,52.38872619],[13.13404861,52.38871065]]},"geometry_name":"geom","properties":{"gisid":1348,"objekt":"Politische Grenze"},"bbox":[13.13043166,52.38862408,13.13404861,52.39032806]},{"type":"Feature","id":"c_politischegrenze.1349","geometry":{"type":"LineString","coordinates":[[13.13325784,52.3872255],[13.13285945,52.38736616],[13.13221525,52.38746393],[13.13191385,52.38749616],[13.13154461,52.38747787],[13.1313285,52.3872258],[13.13126102,52.3871418]]},"geometry_name":"geom","properties":{"gisid":1349,"objekt":"Politische Grenze"},"bbox":[13.13126102,52.3871418,13.13325784,52.38749616]},{"type":"Feature","id":"c_politischegrenze.1350","geometry":{"type":"LineString","coordinates":[[13.10638938,52.40871692],[13.107441,52.40856117],[13.10864925,52.40847787],[13.10949154,52.40802873],[13.10848776,52.40714822],[13.11000179,52.4062822],[13.11038836,52.40593468],[13.11100206,52.40538298],[13.11120684,52.40449236],[13.11137452,52.40433367],[13.11197062,52.40386566],[13.1125845,52.40367145],[13.11342461,52.40339947],[13.11432965,52.40307854],[13.11491143,52.40287433],[13.11570312,52.40261197],[13.11622006,52.40244685],[13.1169784,52.40228278],[13.11773708,52.40208916],[13.11791672,52.40186352],[13.11827565,52.40144177],[13.11877975,52.40099111],[13.11968967,52.40023513],[13.12030064,52.39977058],[13.12091102,52.39930645],[13.1218971,52.39860251],[13.12291777,52.39800637],[13.12416538,52.39726353],[13.12480381,52.39688262],[13.12523438,52.39665774],[13.12587939,52.39654234],[13.12621743,52.39653393],[13.12658699,52.39658471],[13.12697308,52.39659619],[13.12764771,52.39670733],[13.12868992,52.39704642],[13.13246971,52.39866687],[13.13352414,52.39936036],[13.13491622,52.3986377]]},"geometry_name":"geom","properties":{"gisid":1350,"objekt":"Politische Grenze"},"bbox":[13.10638938,52.39653393,13.13491622,52.40871692]},{"type":"Feature","id":"c_politischegrenze.1351","geometry":{"type":"LineString","coordinates":[[13.11887456,52.44311197],[13.12000274,52.44144906],[13.1232045,52.43954988],[13.12313933,52.43870368],[13.1221386,52.43788398],[13.11719547,52.4361557],[13.11396488,52.43301715],[13.11210266,52.43232318],[13.11278733,52.42920158],[13.10801708,52.42666584],[13.10690678,52.42567024],[13.10594959,52.4254374],[13.10540244,52.42532068],[13.1045577,52.42401377],[13.1035321,52.42429883],[13.10190805,52.42458885],[13.10162061,52.42464854],[13.10139424,52.4248152],[13.10123073,52.42493641],[13.10096623,52.42516386],[13.09996543,52.42545662],[13.09936816,52.42536251],[13.098897,52.42514702],[13.09838864,52.42491612],[13.09830502,52.42461091],[13.09822022,52.42440477],[13.09802497,52.42405333],[13.09773244,52.42359244],[13.0959099,52.42201989],[13.08832939,52.41964016],[13.0902297,52.41304858],[13.09023259,52.41281085],[13.09025959,52.41258809],[13.09028857,52.41220189],[13.09060647,52.41167921],[13.09080694,52.41153559],[13.0921226,52.41124437],[13.09329694,52.41058102],[13.09740214,52.40943215],[13.09799217,52.40989746]]},"geometry_name":"geom","properties":{"gisid":1351,"objekt":"Politische Grenze"},"bbox":[13.08832939,52.40943215,13.1232045,52.44311197]},{"type":"Feature","id":"c_politischegrenze.1352","geometry":{"type":"LineString","coordinates":[[13.11774914,52.47492723],[13.1177759,52.47465351],[13.11728417,52.47383428],[13.11698265,52.47297448],[13.11689664,52.47272925],[13.11684402,52.47257409],[13.1167404,52.47235025],[13.11648413,52.4720609],[13.11613438,52.47169187],[13.11422262,52.46966586],[13.11224125,52.46755303],[13.11146048,52.46671371],[13.11142917,52.46587866],[13.11139851,52.4649479],[13.11140255,52.46460202],[13.11137431,52.46398937],[13.11136697,52.4636074],[13.11148005,52.46301698],[13.11174117,52.46187232],[13.11230204,52.45930213],[13.11253482,52.4585609],[13.11264103,52.45754528],[13.11220604,52.45640479]]},"geometry_name":"geom","properties":{"gisid":1352,"objekt":"Politische Grenze"},"bbox":[13.11136697,52.45640479,13.1177759,52.47492723]},{"type":"Feature","id":"c_politischegrenze.1353","geometry":{"type":"LineString","coordinates":[[13.13242922,52.57954685],[13.1319787,52.57983341],[13.13162773,52.58033358],[13.13127511,52.58097939],[13.1308373,52.58211029],[13.13043171,52.58273969],[13.13013583,52.58306209],[13.1298951,52.58320672],[13.12960233,52.58325403],[13.12915091,52.58323596],[13.12883322,52.58313753],[13.12840818,52.58313574],[13.12806283,52.58313429],[13.12790344,52.58313362],[13.12930627,52.585939],[13.1284019,52.58603229],[13.12891893,52.58729666]]},"geometry_name":"geom","properties":{"gisid":1353,"objekt":"Politische Grenze"},"bbox":[13.12790344,52.57954685,13.13242922,52.58729666]},{"type":"Feature","id":"c_politischegrenze.1354","geometry":{"type":"LineString","coordinates":[[13.22107685,52.62828098],[13.22099681,52.6284223],[13.22107685,52.62828098],[13.22052074,52.62834365],[13.22063086,52.62793948],[13.22055423,52.6275994],[13.22024022,52.62704814],[13.22029805,52.6265467],[13.21975899,52.6244574],[13.21828815,52.62249434],[13.21671472,52.62014254],[13.21483534,52.61924602],[13.21360082,52.61763972],[13.21268282,52.6163096],[13.21213079,52.61564421],[13.21121089,52.61452444],[13.20666475,52.60897422],[13.20558709,52.60846118],[13.20523382,52.60832029],[13.20499488,52.6082444],[13.20434429,52.60803781],[13.20351285,52.6077979],[13.20306207,52.60768302],[13.20266446,52.60756832],[13.20218743,52.60742098],[13.20189693,52.60722575],[13.20166069,52.60691745],[13.20160988,52.60667454],[13.20158706,52.60628609],[13.20159019,52.60596247],[13.20164789,52.6054934],[13.20181269,52.60494381],[13.20205503,52.60462104],[13.20240493,52.6041692],[13.2029694,52.60364065],[13.20336965,52.60339416],[13.20396491,52.60292722],[13.20473841,52.60232043],[13.20529804,52.60181697],[13.20602258,52.60109136],[13.20757122,52.5996003],[13.20829041,52.59903407],[13.20884348,52.59859857],[13.20961378,52.5979486],[13.21143292,52.59667662],[13.21420949,52.59531086],[13.21527816,52.59469967],[13.21589236,52.59437816],[13.21681951,52.59383761],[13.21737538,52.59343952],[13.21805856,52.59289692],[13.21862272,52.59223541],[13.21911105,52.5911529],[13.21801573,52.58893221],[13.21736523,52.5874574],[13.21374696,52.58797885]]},"geometry_name":"geom","properties":{"gisid":1354,"objekt":"Politische Grenze"},"bbox":[13.20158706,52.5874574,13.22107685,52.6284223]},{"type":"Feature","id":"c_politischegrenze.1355","geometry":{"type":"LineString","coordinates":[[13.34306511,52.62334836],[13.34298476,52.62336648],[13.34291923,52.62341972],[13.34281108,52.62347286],[13.34267868,52.62339778],[13.3426024,52.62335609],[13.34242619,52.62335574],[13.34231066,52.62331604],[13.34222848,52.6232304],[13.34212324,52.62322099],[13.3419924,52.62329239],[13.34192727,52.6232846],[13.34183604,52.62328243],[13.34171797,52.62327316],[13.34154032,52.62334462],[13.34147099,52.62330359],[13.34136703,52.62328663],[13.34111731,52.62327046],[13.34102337,52.62325102],[13.3409527,52.62323636],[13.34067015,52.62318977],[13.34056679,52.62320358],[13.34048329,52.62317576],[13.34034513,52.62321594],[13.34013783,52.62330529],[13.33997456,52.62326908],[13.33985734,52.62329563],[13.33971897,52.62332719],[13.33957678,52.62328872],[13.33947734,52.62326182],[13.33947104,52.62320229],[13.33937433,52.62317184],[13.33927546,52.62314066],[13.3391981,52.62311521],[13.3390938,52.62313911],[13.33901229,52.6231578],[13.3390066,52.62320446],[13.33893526,52.62323483],[13.33884146,52.62327476],[13.33877254,52.62332281],[13.33866338,52.62330195],[13.33854231,52.62327881],[13.33853281,52.62320275],[13.33851223,52.62312649],[13.33849091,52.62304757],[13.33836839,52.62293258],[13.33817644,52.62293212],[13.33795466,52.62297469],[13.33778199,52.62298642],[13.33762747,52.62299688],[13.33752569,52.62297624],[13.33739721,52.62292299],[13.33730432,52.6228845],[13.33721717,52.62285789],[13.33697409,52.62284151],[13.33683875,52.62281324],[13.33678614,52.62280223],[13.33675388,52.6227952],[13.33671288,52.62277225],[13.33664874,52.62273638],[13.33667018,52.62269208],[13.33662063,52.62264848],[13.33573944,52.62303398],[13.33411087,52.62368594],[13.33282283,52.62419494],[13.33252854,52.62404145],[13.33206012,52.62422752]]},"geometry_name":"geom","properties":{"gisid":1355,"objekt":"Politische Grenze"},"bbox":[13.33206012,52.62264848,13.34306511,52.62422752]},{"type":"Feature","id":"c_politischegrenze.1356","geometry":{"type":"LineString","coordinates":[[13.35920306,52.62332464],[13.35911838,52.62327013],[13.35892227,52.62336798],[13.35882608,52.62340074],[13.35868148,52.62340042],[13.35855911,52.623386],[13.3584717,52.62337472],[13.358404,52.62332542],[13.35842613,52.62318062],[13.3583924,52.62313658],[13.35829474,52.62312084],[13.35815801,52.62323951],[13.35806832,52.62330914],[13.35794091,52.62329333],[13.3577589,52.62317135],[13.35773022,52.6229954],[13.35759439,52.62296664],[13.35740688,52.62304898],[13.35723808,52.6231705],[13.35700032,52.6231855],[13.35690479,52.62313837],[13.35673079,52.62309659],[13.35653942,52.62311426],[13.35640322,52.62317192],[13.35633897,52.62322502],[13.35627062,52.62328177],[13.35621976,52.62325838],[13.35608175,52.62320546],[13.35596949,52.62317762],[13.3557568,52.62322383],[13.35561556,52.62336563],[13.35539426,52.62341168],[13.3552288,52.6234667],[13.35512146,52.6235378],[13.35500207,52.6235996],[13.35492545,52.62361753],[13.35474267,52.6236197],[13.35457266,52.62361931],[13.35444973,52.62356729],[13.35444625,52.62344313],[13.35439406,52.62338547],[13.3542639,52.62337546],[13.3540469,52.62341376],[13.35388927,52.62347289],[13.3537914,52.62349077],[13.35365126,52.62347234],[13.35354091,52.62344622],[13.35340101,52.62338899],[13.35332922,52.62331382],[13.35321452,52.62330579],[13.35304393,52.62339851],[13.35292086,52.62336719],[13.35284073,52.6232856],[13.3528069,52.62324019],[13.35270945,52.62319082],[13.3525694,52.62315687],[13.35245495,52.62310746],[13.35243399,52.62306085],[13.35254991,52.62287489],[13.35247365,52.62283592],[13.35226982,52.62280699],[13.35218837,52.62291802],[13.35214099,52.62301879],[13.35206856,52.62304707],[13.35178397,52.62301796],[13.35165651,52.62300991],[13.35162069,52.62290229],[13.35159828,52.62280802],[13.35151355,52.62276385],[13.35144996,52.62273784],[13.35132872,52.6227484],[13.35128796,52.62285206],[13.35103061,52.62390728],[13.348225,52.62371915],[13.34640775,52.62364773],[13.34542217,52.62368812],[13.34395235,52.62378227],[13.34388269,52.62369971],[13.3438103,52.62364919],[13.3437628,52.62362772],[13.34365792,52.62358596],[13.34362285,52.62355872],[13.34356785,52.62353418],[13.34351299,52.62348827],[13.34347053,52.62346224],[13.3433713,52.62348195],[13.3432774,52.62347398],[13.34320479,52.62346007],[13.34311256,52.62337746],[13.34306511,52.62334836]]},"geometry_name":"geom","properties":{"gisid":1356,"objekt":"Politische Grenze"},"bbox":[13.34306511,52.62273784,13.35920306,52.62390728]},{"type":"Feature","id":"c_politischegrenze.1357","geometry":{"type":"LineString","coordinates":[[13.38836581,52.56953284],[13.38786846,52.56916142],[13.38922391,52.56837772]]},"geometry_name":"geom","properties":{"gisid":1357,"objekt":"Politische Grenze"},"bbox":[13.38786846,52.56837772,13.38922391,52.56953284]},{"type":"Feature","id":"c_politischegrenze.1358","geometry":{"type":"LineString","coordinates":[[13.37691093,52.51940976],[13.37689626,52.5196602],[13.37644414,52.51997435],[13.37624547,52.52011254],[13.37613464,52.52044067],[13.37608697,52.52063216],[13.37604692,52.52079315],[13.37597366,52.5211853],[13.37578652,52.52148385],[13.37544006,52.5218467],[13.37516492,52.52197007],[13.3748574,52.52215038],[13.37456249,52.52232323],[13.37401882,52.52253045],[13.37342174,52.52270692],[13.37281191,52.52279449],[13.37163283,52.52282428],[13.37166161,52.52471498],[13.37167453,52.52477156],[13.37093009,52.52522242],[13.37094875,52.52657176],[13.37333328,52.52656881],[13.37359711,52.52676329],[13.37370216,52.5269251],[13.37378053,52.52711918],[13.37379271,52.52730504],[13.37375176,52.52751502],[13.37379449,52.52762371],[13.37374047,52.52768903],[13.37366962,52.52778512],[13.37353007,52.52797449],[13.37336358,52.52811086],[13.37314508,52.52831027],[13.37283761,52.52859079],[13.37258652,52.52871561],[13.37228854,52.5289999],[13.37176859,52.52949598],[13.37148684,52.52974613],[13.37102013,52.53024816],[13.37082028,52.53044163],[13.37071349,52.53057876],[13.37053985,52.53082077],[13.37003231,52.5315226],[13.36895189,52.53276452],[13.36845888,52.53324014],[13.36827325,52.53326398],[13.36584787,52.53562599],[13.36650903,52.53585368]]},"geometry_name":"geom","properties":{"gisid":1358,"objekt":"Politische Grenze"},"bbox":[13.36584787,52.51940976,13.37691093,52.53585368]},{"type":"Feature","id":"c_politischegrenze.1361","geometry":{"type":"LineString","coordinates":[[13.24974849,52.40495864],[13.24972353,52.40516441],[13.24923965,52.40808746],[13.24882306,52.40836479],[13.24902043,52.40950535],[13.24904692,52.41125334],[13.24891269,52.41241819],[13.24852665,52.4139622],[13.24810002,52.41540476],[13.24788637,52.41616403],[13.24742851,52.41734854]]},"geometry_name":"geom","properties":{"gisid":1361,"objekt":"Politische Grenze"},"bbox":[13.24742851,52.40495864,13.24974849,52.41734854]},{"type":"Feature","id":"c_politischegrenze.1366","geometry":{"type":"LineString","coordinates":[[13.30722662,52.63752357],[13.30578791,52.63726117],[13.30617603,52.63666905]]},"geometry_name":"geom","properties":{"gisid":1366,"objekt":"Politische Grenze"},"bbox":[13.30578791,52.63666905,13.30722662,52.63752357]},{"type":"Feature","id":"c_politischegrenze.1367","geometry":{"type":"LineString","coordinates":[[13.38924142,52.56821167],[13.38848419,52.56772067],[13.38909381,52.5674044],[13.38884034,52.56714137],[13.3889544,52.56700189],[13.39067497,52.56602627],[13.39064399,52.5657803],[13.39101391,52.56562229],[13.39140468,52.56561248],[13.39321263,52.56448893],[13.39434674,52.56349897],[13.39500184,52.56277264],[13.39548227,52.56223119],[13.39589722,52.56175574],[13.39615987,52.56134615],[13.3963139,52.56094957],[13.39642431,52.5605926],[13.39653478,52.56022239],[13.39664595,52.5597199],[13.39682278,52.55911169],[13.39693387,52.55862243],[13.39708844,52.55812002],[13.39709196,52.55744533],[13.39713938,52.55667813],[13.39718569,52.55612259],[13.39727534,52.55558036],[13.39754048,52.55468129],[13.39776235,52.55375567],[13.39796167,52.55298876],[13.39796429,52.55248605],[13.39781532,52.55191691],[13.39766513,52.55158588],[13.39742819,52.55124146],[13.39677988,52.55071104],[13.39736233,52.55081325],[13.39735652,52.55080858],[13.39884078,52.55087377]]},"geometry_name":"geom","properties":{"gisid":1367,"objekt":"Politische Grenze"},"bbox":[13.38848419,52.55071104,13.39884078,52.56821167]}]}
